"airtableID","Primary Field","Place","Local place","City","County/township","State/province/territory","Country","Latitude","Longitude","Name [Region]","[Universities]","[events]","[people] Country of Nationality","[people] Place of Birth",":[works]","[publications]","[publishers]"
"recj9vrQXumVH87ND","Uganda |  | Wakiso District |  | Busi Island | Bussi Island |","Bussi Island","Busi Island","","Wakiso District","","Uganda","0.04917","32.32667","East Africa","","","","['recYI8w29McOAjq73']","","",""
"rec6WlBv3p3TwUXVJ","United States |  |  |  |  | Washington |","Washington","","","","","United States","47.7510741","-120.7401385","North America","","","['rec3kdkVkT9mqgfQs']","['recyEXKtWgjm3iJ3g']","","",""
"recxMkhS8SgkrbXpP","New Zealand |  |  |  |  | Wanganui |","Wanganui","","","","","New Zealand"," - "," - ","Oceania","","","","['rec6sdlh8Th5vfXIt']","","",""
"recSj8anC3xqmf72t","England |  |  | London |  |  |","","","London","","","England","51.5471806","-0.0081304","United Kingdom","","['recUO2tSQnSfoYIAl']","","['recINtrF9l2OHtg3K', 'recjx62RMin93jRt1', 'recQyczOiYUmHtmfF', 'recemL1M7EaAD89Q3', 'rec2963vDfEBsBc2D', 'reco9RHOHDN5C0rOU']","","","['recDWbpkKqvZRtxkE', 'rec42jmLVcCQlVvRl', 'recO0UplWrWZWGyv4', 'recoygQGxtDN6qaMa', 'rec0egD7m1XUiWWVh', 'recTUQM7OOLMYZuNj', 'recBEzgRSfrmHDRxn']"
"reckmtC7Xh3RWs7UN","Portugal |  |  | Lisbon |  | Setubal |","Setubal","","Lisbon","","","Portugal","38.7222524","-9.1393366","Europe","","['recsJRTua047sRWwA']","","","","",""
"recs5ySdvkgO4Ce7F","England |  |  | London |  | Queen Elizabeth Hall |","Queen Elizabeth Hall","","London","","","England","51.5067425","-0.1161024","United Kingdom","","['recd0JrCqOOKc1vUh']","","","","",""
"rec1IUZnTz6lwVgFI","England  |  | Dorset |  |  | Poole |","Poole","","","Dorset","","England "," - "," - ","United Kingdom","","","","['recWvCOeDqTxH6Hs6']","","",""
"recmyrkj99cRZhbLa","England |  |  | London |  | Nash House |","Nash House","","London","","","England","51.5290118","-0.2504219","United Kingdom","","['rechG0tOxURmQ6uHq']","","","","",""
"recEmBE3ZMNCd0rLX","France |  |  | Cher |  | La Chapelle-d'Angillon |","La Chapelle-d'Angillon","","Cher","","","France","47.363586","2.433502","Europe","","","","['recImOMmpStymHe8H']","","",""
"recu4vf3QLnZhk7cD","England |  |  | London |  | Institute for Contemporary Arts. |","Institute for Contemporary Arts.","","London","","","England","51.5063335","-0.1309615","United Kingdom","","['recxPRD1R6qs8RGHz']","","","","",""
"recbGakNnlYXbnk46","England |  |  | London |  | Institute for Contemporary Arts |","Institute for Contemporary Arts","","London","","","England","51.5063335","-0.1309615","United Kingdom","","['rect68mG866stfZSY']","","","","",""
"recasm5ikFiPk1guQ","England |  |  | London |  | Hackney |","Hackney","","London","","","England","51.573445","-0.0724376","United Kingdom","","","","['recWKosoDYpwTVRVQ']","","",""
"recTT9HSMMaZsxqTC","England |  |  | London |  | Commonwealth Institute |","Commonwealth Institute","","London","","","England","51.4998973","-0.200244","United Kingdom","","['receewUNgUh2UPey1']","","","","",""
"rec8Ve8VuDOHUIS0V","England |  |  |  |  | Carlisle |","Carlisle","","","","","England"," - "," - ","United Kingdom","","","","['recVZJv6CtfCunnjw']","","",""
"recKYWborIAC6jit4","England |  | Kent | Canterbury |  | Canterbury |","Canterbury","","Canterbury","Kent","","England","51.2802","1.0789","United Kingdom","['rec1LsGirI4GK3kjY']","","","","","",""
"reck9CLP5HPEUBnmm","Central African Republic |  |  |  |  | Bobangui |","Bobangui","","","","","Central African Republic","4.0421547","18.1134546","Central Africa","","","","['recAXIXPr6CQsJYyD']","","",""
"reczVP09npBUnxqsU","Nigeria |  |  |  |  | Abeokuta |","Abeokuta","","","","","Nigeria","7.147502","3.3619356","West Africa","","","","['recePxY600kj8FBDo', 'recuDV2j0MhyxMJNb', 'reczlgSw3Pho8Yf73', 'recC60sJoNHR7svZX', 'recoxfH6dMbqv5eG4', 'rec0ru8zGOZRVF25P']","","",""
"recKPWfIUVXRGABVc","United States | Missouri |  | St. Louis |  |  |","","","St. Louis","","Missouri","United States","38.6270025","-90.1994042","North America","","","","['rec6b0sTLfdiK6tYM', 'recQuRdyfoALBHuQV']","","",""
"recKSzuB8iG12SwnM","Jamaica |  |  |  |  |  |","","","","","","Jamaica","18.109581","-77.297508","Caribbean","","","","['recuBKmsQFdrXtguv', 'recIoKh0aVjyauNvo', 'recYry0pfJ3kX2OLT', 'recCBwdZ8zXVV5GN9', 'rectwD5vBASu07TUZ', 'recJ2M7a0zGsZBKbU', 'recFWS1VX0p2m8P5c', 'reccTpvabrxiTKSJS', 'recWUV6Wv1s5n0pJ7', 'rec054buWsGdTTCzO', 'recaS6pLPdM1ayN0Y']","","",""
"recKAnpjh5TT36ky8","Czech Republic |  |  |  |  |  |","","","","","","Czech Republic","49.817492","15.472962","Europe","","","","['recswXHWMmnjSqE7Q', 'recFaXOnbT5p5bLdc', 'recZIwRi88mWZv6wk', 'rec7Ev6wT8egfSctM']","","",""
"recK5hbhFExEPB6jS","Kenya |  | Nandi County | Kapsabet |  |  |","","","Kapsabet","Nandi County","","Kenya","0.202957","35.0978385","East Africa","['recU4RVrsLCOueJQE']","","","","","",""
"recKhO3dGPBsxmwYn","Spain |  |  | Baena |  |  |","","","Baena","","","Spain","37.617362","-4.3244513","Europe","","","","['recbl75UxH2Akpr6z']","","",""
"recLM0HjQzxbPfQLn","South Africa |  |  | Cape Town |  |  |","","","Cape Town","","","South Africa","-33.9248685","18.4240553","Southern Africa","['recnIDEyUz3FRG5ZJ']","['recKbp9zSIw8v9mkr', 'recNDozwIPSyebEwn', 'recU5bKcn3WH2BWEK', 'recno4gd0TN3WT6LJ']","","['recR6OAzT384D9Qy4']","","",""
"recLQARLWivH78LSd","Algeria |  |  | Mazouna |  |  |","","","Mazouna","","","Algeria","36.12647","0.8906102","North Africa","","['recEXq1UMGV0DVDuc']","","","","",""
"recLtwM2ELmIWL2Fo","United States | Massachusetts |  | Cambridge |  |  |","","","Cambridge","","Massachusetts","United States","42.3736158","-71.1097335","North America","['recQcFqQ9acIrq7Wu']","","","","","","['recGzZk9WwxVLftob']"
"recLBuKoPA5QZWrOD","Barbados |  |  |  |  |  |","","","","","","Barbados","13.193887","-59.543198","Caribbean","","","","['recktprVNrQGVfO7F', 'recDKjbNwQx6Jucqp', 'recFFsJT512jYAekw']","","",""
"recLBXpJ0lVIa3tmz","Trieste, Kingdom of Italy |  |  |  |  |  |","","","","","","Trieste, Kingdom of Italy","45.6495264","13.7768182","Europe","","","['recKVr6YwZ4zmh4BV']","['recKVr6YwZ4zmh4BV']","","",""
"recLGQavKSu7wWHk3","Ghana |  |  | Cape Coast |  |  |","","","Cape Coast","","","Ghana","5.13151","-1.2794744","West Africa","","","","['recyWvhDXA1v4E0Xu']","","",""
"recL4LdiiKCP9L0EW","Madagascar |  |  | Tananarive |  |  |","","","Tananarive","","","Madagascar","-18.8791902","47.5079055","East Africa","","['recqXWkhkpH69z8DK']","","","","",""
"recLbnT3ux7y6bRFn","Nigeria |  |  | Iruekpen-Ekpoma |  |  |","","","Iruekpen-Ekpoma","","","Nigeria","6.763227","6.049313","West Africa","","","","['recoaB1GnGdqqBs6f']","","",""
"recMk7kvCuylIIanv","Yugoslavia |  |  |  |  |  |","","","","","","Yugoslavia","43.6876095","-79.4121417","Europe","","","","['recVNWZ5r5sJ6YV7n']","","",""
"recMt6L5p9Es4dD3W","United States | California |  | Los Angeles |  |  |","","","Los Angeles","","California","United States","34.0522342","-118.2436849","North America","","","","['recGS2QtP2fwEHCkN']","","","['recqaGRKsLYAhYqwE']"
"recMIsz3q9BN5ixGa","Nigeria |  |  | Bomoundi |  |  |","","","Bomoundi","","","Nigeria","9.06146","7.50064","West Africa","","","","['rectpmBqIZAXKbx3C']","","",""
"recNmjRhl7UMHJV7s","South Africa |  |  | Pearston |  |  |","","","Pearston","","","South Africa","-32.5795387","25.1385192","Southern Africa","","","","['rec3bAHxXJmEpoCaz']","","",""
"recNzKrK8sZIVIUBi","Nigeria |  |  | Ibadan |  |  |","","","Ibadan","","","Nigeria","7.3775355","3.9470396","West Africa","['recUweR2pzLrclRy3']","['rech4d24ts5PcP2mP']","","['recmYsENpGbfofN9v']","","","['rec8IH5hMSwuAowcC', 'rec1iOJuP4Moe5Kiy', 'recwfnP4LRPv5ONo5']"
"recNAupT81JQovym0","France |  |  | Toulouse |  |  |","","","Toulouse","","","France","43.604652","1.444209","Europe","['recv6ruR4Y6JdZEhx']","","","","","",""
"recNGv9J8vAnHSJIF","Senegal |  |  | Saint-Louis |  |  |","","","Saint-Louis","","","Senegal","16.0326307","-16.4818167","West Africa","","","","['recLlBdYrdtjr0yVi']","","",""
"recNUxJGHX94C0ZUZ","France |  |  | Bordeaux |  |  |","","","Bordeaux","","","France","44.837789","-0.57918","Europe","['recLOtI01dQHROtOw']","","","['recjbq3JoILFn5Hs9']","","",""
"recN6RC2Fvuhe17IT","Malawi |  |  | Zomba |  |  |","","","Zomba","","","Malawi","-15.3765857","35.3356518","Southeast Africa","['reckJuvBYxbipSAlW']","","","","","",""
"recOMPw6N7jXMeAfE","Australia |  |  |  |  |  |","","","","","","Australia","-25.274398","133.775136","Oceania","","","['recZEZQzu49m7bCmW', 'recfaHoJmdRrUDyBH', 'rec06ILglltM8pW38', 'recYwTrrpx3mrjIc4', 'recVR4vpjeGeQt12b', 'reck9JEFLBrEotW0O']","['recGD7Lh3dcgviY3K', 'rec7n7nxnpulxIPdc', 'recltz2nm8FIGbnXj', 'recelPnYVAY9I1HDc', 'recaiKCWEdtRioFTl', 'reclfIPYIS9yrKIC4', 'recwc1obEkUZ6c9Z1', 'recf1diyOsyiJwZEi', 'recJs6aEi5D3RCvmJ', 'rec0Ggx0AN9i7Spv9', 'recgKctI8JvlV6Jst', 'rec9D7GModJchoRcP']","","",""
"recOPJpt1V4mPFydt","Scotland |  |  | Edinburgh |  |  |","","","Edinburgh","","","Scotland","55.953252","-3.188267","United Kingdom","['recR458OjSvM55Cn9']","","","['recJXo88bdzBfnRNr', 'recnpWyDZGfSVTyf8', 'recL6EVvg9LDZfwhX', 'recC7qg8BLJzHGUXi', 'rec60omP8BrCS4S5L', 'recmgTKawiP1U8iy4', 'rechqMPpZeh98huhg', 'recTtCQxnT4bHCRbV', 'recgGuMAyQleN6jkV']","","","['recIygIqo7A9wrjSE', 'rec6hOfLu8JBCR0Ar']"
"recORgyM55bgukX0x","China |  |  |  |  |  |","","","","","","China","35.86166","104.195397","East Asia","","","","['recKq0KeCmbqZinAW']","","",""
"recOSSqNKBPWkw5Pg","Argentina |  |  |  |  |  |","","","","","","Argentina","-38.416097","-63.616672","South America","","","","['rec1USTgEpdHDKN9n', 'recj6TCeTYR4N8xG1']","","",""
"recOuEGpGtb4Ds7N5","South Sudan |  |  |  |  |  |","","","","","","South Sudan","6.8769919","31.3069788","North Africa","","","['recfLEJy5UAIea5Jd']","","","",""
"recOHLFI09PDZKY9l","United States | Pennsylvania |  |  |  |  |","","","","","Pennsylvania","United States","41.2033216","-77.1945247","North America","","","","['recAIsLKeVaD4sA7T', 'rec0FTu3sQ7OU8wU1', 'recSEpGYA6yE3unVf']","","",""
"recOeguF1ow53wWCc","Ghana |  |  | Kumasi |  |  |","","","Kumasi","","","Ghana","6.6666004","-1.6162709","West Africa","","","","['recBwp4ULSEXDJ7mM']","","",""
"recPsZ8zPqB7ixszI","Portugal |  |  | Lisbon |  |  |","","","Lisbon","","","Portugal","38.7222524","-9.1393366","Europe","","","","['recyLAhzLCaZgQd8d']","","",""
"recPhBPtZTJhdWXDg","Mozambique |  |  | Beira |  |  |","","","Beira","","","Mozambique","-19.8315949","34.8370183","East Africa","","","","['recYIwEzDccnIv2ip']","","",""
"recQmxIkKk5SrHwu2","Guyana |  |  |  |  |  |","","","","","","Guyana","4.860416","-58.93018","South America","","","","['recGRGOKF37U0eNCy', 'rec4wWQEOU3dWZl5g', 'recByT9QAwEyKoXEE', 'recvZfMBRNXUs2XpT', 'recuDvL54zfg67viE']","","",""
"recQv4awWXxtsWGB4","England |  |  | London |  |  |","","","London","","","England","51.5073509","-0.1277583","United Kingdom","['rec5x4o3Tum2d9576']","['recLIC3zbnLG9FfL6', 'recwQhtYvMnmA5Fwy', 'recCrptVTuwhrcdZi', 'recXQsrUmcIh63nHZ', 'recEIo5zHZ2fSwyLC', 'recipruVu0jxZuTmK', 'recGejDGPmaGY1yn2', 'recRAsPow6HXtyf7e', 'recLn3hGhYroZtIR2', 'recolcvD5BPGSVNUY', 'rec5MIrsUPAxaf5Oi', 'reclS5LLr7VQp2hE4', 'recXBQ3Omn8UgBl1K', 'reclTAPolxEDjiQFK', 'recrbMPWsvE3BCx8o', 'recS5iDMhH6VFdSbm', 'recq7l2HcIRiuWzP9', 'recc1GU0Dicj25GNV', 'recjQhxcrD8Oj3wkL', 'recToIVP3T8vCnt9a', 'rec2YtjYl9jImicsT']","['rec0a1ufzIYZfguOK', 'recMDxLnrJ8ACk7uK', 'rec5TmyUw95YV6h8p', 'recIYFD9EJbTgxYyp', 'recIbjag6UzvFT5bq']","['rechdVSVJbSP6QcFc', 'recMDxLnrJ8ACk7uK', 'rec5TmyUw95YV6h8p', 'recIYFD9EJbTgxYyp']","","","['rec4JpCcDzcBvO4kw', 'rec7KOtQiRyHnPNzO', 'reckNlUqi8M8vXaYx', 'recG9AeJv85b9eOBJ', 'recHNyRMAkLggjESQ', 'recosYElxL2KnAxcx', 'recsm4rvjkDB7wPx4', 'rec4pMd3dYNGgtswj']"
"recQDeUYxrwg3DSdk","Ireland |  |  | Dublin |  |  |","","","Dublin","","","Ireland","53.3498053","-6.2603097","Europe","","['recIXL4kzZS5LWfPH']","","['recdXK8eYI5xvkjCR', 'recheoO6RmMVfh0Jp', 'recisEYHhKHyTJeUw']","","",""
"recQ14gKi6NhOg1p2","South Africa |  |  | Port Elizabeth |  |  |","","","Port Elizabeth","","","South Africa","-33.9608369","25.6022423","Southern Africa","","","","['rect7duUVcyGen6MV', 'recEBCIxUrHMSfSSI']","","",""
"recQ44IdKFxMds43h","Nigeria |  |  | Lagos |  |  |","","","Lagos","","","Nigeria","6.5243793","3.3792057","West Africa","['recfI4VWY1WTusO2Y']","","","['rechL1G0NTL0bLIf7', 'recvXkozrLev0hEGS', 'rec81KKiSkpV65IPC', 'recdswf3hBk8zSG1C', 'rect2ZyxVaLpoegsd', 'recfmy77Hk7IL4NUS', 'recyimqKvAKahjLkh', 'recg06P90OYhMywK2']","","","['rec0s1hWe5h4k8JKg', 'rec0UuJOO3sP47G4p', 'recO7fUaPJ7zCRzpI', 'recqoDU6N1oArvTYZ']"
"recQ7ykotywNmwuqQ","South Africa |  |  | Roodepoort |  |  |","","","Roodepoort","","","South Africa","-26.1201355","27.9014654","Southern Africa","","","","['recyZBkqzfhORmEiA']","","",""
"recQeaTNF9WZ7WOXZ","Gambia |  |  |  |  |  |","","","","","","Gambia","13.443182","-15.310139","West Africa","","","['recLCVc9i8eIL3f3F']","","","",""
"recRJbOEMDUcYDlVA","Netherlands |  |  |  |  |  |","","","","","","Netherlands","52.132633","5.291266","Europe","","","","['recJYvMAKiXYcoKJa']","","",""
"recRAQi3hQ9iZhPhs","Scotland |  |  | Edinburgh |  |  |","","","Edinburgh","","","Scotland","55.953252","-3.188267","United Kingdom","","['recIanXci5RBWSCHf']","","['recX5AhlQJGBrB0Ix']","","",""
"recRAUH29EvigiuYm","South Africa |  |  | Kroonstad |  |  |","","","Kroonstad","","","South Africa","-27.6372514","27.2323367","Southern Africa","","","","['rec2Yzcx8kklIjbf2']","","",""
"recRH4MvuWhsyLkwJ","Lebanon |  |  |  |  |  |","","","","","","Lebanon","33.854721","35.862285","Middle East","","","","['reck6EYexdzp0eVrL']","","",""
"recRICgGfeUh7Nido","South Africa |  |  | Bloemfontein |  |  |","","","Bloemfontein","","","South Africa","-29.085214","26.1595761","Southern Africa","","['recbDMwG3tJv9uPBs']","","","","",""
"recRTBMmm5NeIhv7n","Wales |  | Carmarthenshire | Trelech |  |  |","","","Trelech","Carmarthenshire","","Wales","51.94474","-4.500868","United Kingdom","","","","['recIJGOEOAVG7xX6i']","","",""
"recR7OHsENNxljdV9","Ivory Coast |  |  |  |  |  |","","","","","","Ivory Coast","7.539989","-5.54708","West Africa","","","['recA8qjihipmJfnL4']","","","",""
"recSxwASkBFp3W9VX","South Africa |  |  | Pietersburg |  |  |","","","Pietersburg","","","South Africa","-23.8961708","29.4486263","Southern Africa","","","","['recQ4TUf5goeHxYMk']","","",""
"recSYbLTgie0LvB4t","Ghana |  |  | Saltpond |  |  |","","","Saltpond","","","Ghana","5.2023106","-1.0514312","West Africa","","","['recGvoKuf0fF8xURy']","['recGvoKuf0fF8xURy']","","",""
"recTn0TRaNcKElYZM","United States | Michigan |  | Kalamazoo |  |  |","","","Kalamazoo","","Michigan","United States","42.2917069","-85.5872286","North America","","","","['recGYQxa4nRGAxsMn']","","",""
"recTqN1q1lLrQOexQ","Zimbabwe |  |  |  |  |  |","","","","","","Zimbabwe","-19.015438","29.154857","Southern Africa","","","['recFHdAFdW1OPqCtv', 'recBeSK1UyBPg8ii8']","['recFHdAFdW1OPqCtv', 'recXOxxtjdzt5jio5', 'rec4gniAT5T2btYMS', 'recTC2mF9cPsyiS27', 'recRRUQ2fd8PRTwcs']","","",""
"recTqmd1sjBh9erqg","Cameroon |  |  | Douala |  |  |","","","Douala","","","Cameroon","4.0510564","9.7678687","Central Africa","","","","['recJLuhguOw9hBsyI']","","",""
"recTFtwViS5VynyUD","Czech Republic |  |  | Teplice |  |  |","","","Teplice","","","Czech Republic","50.6444579","13.835284","Europe","","","","['recaQJfzr16EWRkPP']","","",""
"recTF4mq7cznKe7gv","South Africa |  |  | KwaZulu-Natal |  |  |","","","KwaZulu-Natal","","","South Africa","-28.5305539","30.8958242","Southern Africa","","['recBADQJPmC8yo6NX']","","['recIYFL9RLyOfiM5R', 'recneMUvjVrQSbuEv', 'reckPq0VMuwf9wDh5', 'rec74eZk0XrQlby0O', 'recJk0P5VOj0PcOQ3']","","","['recd31TUXWenSk2Vg', 'recMSeqTcNoKXxy6a', 'recAHx7evwKtvdqaF']"
"recT5J8B7MkFgORAJ","United States | New Hampshire |  | Portsmouth |  |  |","","","Portsmouth","","New Hampshire","United States","43.0717552","-70.7625532","North America","","","","","","","['recjrkARtlJ2gcxyJ']"
"recTeYfPEsbAZp1LE","United States | Massachusetts |  | Boston |  |  |","","","Boston","","Massachusetts","United States","42.3600825","-71.0588801","North America","","","","","","","['rec8J2uriOHGCen3n']"
"recknQtKDd1DoV6EC","United States | New Jersey |  |  |  |  |","","","","","New Jersey","United States","40.0583238","-74.4056612","North America","","","","['reccW8CVvIt9Txakr', 'reci2HKkLp6gLIb2y', 'recyfXi5AfqhI7C8I']","","",""
"recktLm7VcejyDJ5L","United States | New York |  | Rhinebeck |  |  |","","","Rhinebeck","","New York","United States","41.9318294","-73.9074372","North America","","","","","","","['reccxe58dIAjFMdjW']"
"reckXmvcuJTfA1Ebw","British India |  |  |  |  |  |","","","","","","British India"," - "," - ","South Asia","","","","['rec7AFq6Qk7msqsE4', 'rec24J0slNp6b6LYf', 'recoPp2NffbcwoSHH', 'recMdFjNgrvmFieJP']","","",""
"reck5KqUMtoTuByAW","Mozambique |  |  |  |  |  |","","","","","","Mozambique","-18.665695","35.529562","East Africa","","","","['recmtjzP8w1hXouVB', 'recQsfvNC0AwPDvG7', 'rec61vdlPSGJZIw6J']","","",""
"reckgvkGFM6NulQH2","South Africa |  |  | Stellenbosch |  |  |","","","Stellenbosch","","","South Africa","-33.9321045","18.860152","Southern Africa","['recN8idxRVwtAW1Mq']","","","['rech5mbSevTpUocsQ']","","",""
"reclOpPGX481mIIQk","South Africa |  |  |  |  |  |","","","","","","South Africa","-30.559482","22.937506","Southern Africa","","['recNFJvHzUT2X7Fps', 'recxmvMclDoNriLcO']","['recpBCGOaV0epcpUw', 'recA0GlU4rfqJOWYR', 'recpxTUxOljQrSOUJ', 'recjjDEUSYirj727g', 'rec4T7ZsX94ZOprMn']","['recfaHoJmdRrUDyBH', 'recTdZ8xMC4U5gzsZ']","","",""
"recmOXPbPVyOxo1wz","Tunisia |  |  | Tunis |  |  |","","","Tunis","","","Tunisia","36.8064948","10.1815316","North Africa","","","","","","","['recZ43o2o483ldaty']"
"recmREf8s6Y9XuiEg","Italy |  |  |  |  |  |","","","","","","Italy","41.87194","12.56738","Europe","","","['reciQ6kSif9HNb4Wx', 'recjpCr1ofANBwN25']","['recqwhr53t6PV3o3Q', 'recTjGXblHpAPaBU2', 'recnfpnGVBED3JQFx', 'recYpqr8aZcLG9XyZ', 'recebaCzIziSuSpDG', 'recp4u0m5aM5pArx8', 'recw71z6KpHDk7TvY', 'recmEPoQTSVtj9qzj', 'rec8EzeCw1jARofLp', 'recx5aOgUxyjcdjGK', 'rec6c75gAbcqps1oO', 'recwzqeToVWae7Fhu', 'recRCanBejDZGNujC']","","",""
"recmu40o8C0Ut8ceF","Turkey |  |  |  |  |  |","","","","","","Turkey","38.963745","35.243322","Europe","","","","['recWIOSAEcuCqdu3J']","","",""
"recmCjoj5cRTLz0Ha","Colony of Southern Rhodesia |  |  |  |  |  |","","","","","","Colony of Southern Rhodesia"," - "," - ","Southern Africa","","","['recJS8H6ldyvxrumr']","","","",""
"recmUnn68DKIhu9GE","United States | South Dakota |  |  |  |  |","","","","","South Dakota","United States","43.9695148","-99.9018131","North America","","","","['recZZO38SFxlYHTc2']","","",""
"recmfvCDWo1Rvoh8z","The Gambia |  |  | Bathurst |  |  |","","","Bathurst","","","The Gambia","13.4548761","-16.5790323","West Africa","","","","['recU3YEPhuA5A33Oe']","","",""
"recnKm1VdxmI4Dnxa","United States | Virginia |  | Charlottesville |  |  |","","","Charlottesville","","Virginia","United States","38.0293059","-78.4766781","North America","","","","","","","['rechz32Kx7SN1NLkv']"
"recnuIZlwCAplKHAz","Ivory Coast |  |  | Yamoussoukro |  |  |","","","Yamoussoukro","","","Ivory Coast","6.8276228","-5.2893433","West Africa","","","","['recTeKSA2suwHUbEk']","","",""
"recn5kTuZu1I3tqAu","Nigeria |  |  | Kiagbodo |  |  |","","","Kiagbodo","","","Nigeria","5.3786091","5.8960738","West Africa","","","","['recVFPpzi89nRR9VN']","","",""
"reconosLieCop9hrG","Cuba |  |  | Trinidad |  |  |","","","Trinidad","","","Cuba","21.7960343","-79.9808143","Caribbean","","","","['rec98x0n3NdNzD1JX']","","",""
"recoq79XHv6yApciz","Ivory Coast |  |  | Assinie |  |  |","","","Assinie","","","Ivory Coast","5.1398055","-3.3237824","West Africa","","","","['recA8qjihipmJfnL4']","","",""
"recowlYYszmbm5vw8","Netherlands |  |  | Amsterdam |  |  |","","","Amsterdam","","","Netherlands","52.3675734","4.9041389","Europe","","","","['recybQHWOsirmsfyD']","","","['recdlfoW1Z4HDO1sd', 'recpu5QqIhe2d2WxQ']"
"recoGoGLxUhLZ4XFw","South Africa |  |  | Lydenburg |  |  |","","","Lydenburg","","","South Africa","-25.0815817","30.447285","Southern Africa","","","","['recwvJUNl2WoXIFlN']","","",""
"recoToJoOYww0XAX4","United States | Mississippi |  | Oxford |  |  |","","","Oxford","","Mississippi","United States","34.3668299","-89.518635","North America","","","","['recA6iLB1E6J1aTzF']","","",""
"recoez16mZpQnYvS4","United States | Minnesota |  | Austin |  |  |","","","Austin","","Minnesota","United States","43.6666296","-92.9746367","North America","","","","['recFmMzTMrM6ud3T1']","","",""
"recpM2bXWSGJLQ3ST","England |  |  | Basingstoke |  |  |","","","Basingstoke","","","England","51.26654","-1.0923964","United Kingdom","","","","['rechEr05gaVNgV9hL']","","",""
"recpOUHeJKRo5Ca7x","England |  |  | Leeds |  |  |","","","Leeds","","","England","53.8007554","-1.5490774","United Kingdom","","['rechmEL995rthHS6z']","","['rec5mxekHWRzTmxCl']","","",""
"recpzqSScgtNL4Ob5","South Africa | Eastern Cape |  | Alice |  |  |","","","Alice","","Eastern Cape","South Africa","-32.7901325","26.8329509","Southern Africa","['recwdtNhnTXskm1Rk']","","","","","",""
"recpgzr9vACO50qKl","Nigeria |  |  | Minna |  |  |","","","Minna","","","Nigeria","9.5835546","6.5463156","West Africa","","","","['rec7DEMLWlkq82ddc', 'recqPMHfvsUN20IIs']","","",""
"recqJxe0Nra4gpT0h","United States | South Dakota |  |  |  |  |","","","","","South Dakota","United States","43.9695148","-99.9018131","North America","","","","['reco2DPBBF0ybn32D']","","",""
"recqN3mHujeLkQLLQ","Ethiopia |  |  |  |  |  |","","","","","","Ethiopia","9.145","40.489673","East Africa","","","","['reczHWAqg8mOKzP2Y', 'reckUhPdp81EVbF0E']","","",""
"recqQdIoEhavb2LP9","Nigeria |  |  | Enugu |  |  |","","","Enugu","","","Nigeria","6.5536094","7.4143061","West Africa","","['recuWBWgGYybKsxfO']","","","","",""
"recqSwoWwhp7legAU","England |  | Cambridgeshire | Cambridge |  |  |","","","Cambridge","Cambridgeshire","","England","52.2048325","0.1201662","United Kingdom","","['recjOk47KsBK4PatV']","","['recePQOo5PdlrUPux']","","",""
"","United States | California |  | San Francisco |  |  |","","","San Francisco","","California","United States","37.7749295","-122.4194155","North America","","","","['recza1LvOwp7opJL6']","","",""
"","United States | Texas |  | Austin |  |  |","","","Austin","","Texas","United States","30.267153","-97.7430608","North America","['recA18nHF8AvyXPWI']","","","","","","['receJe1XXv82YT0iK']"
"","Nigeria |  |  | Bori |  |  |","","","Bori","","","Nigeria","4.673499","7.3678624","West Africa","","","","['recVMiOD3DjuctSx4']","","",""
"","Scotland |  |  | Glasgow |  |  |","","","Glasgow","","","Scotland","55.864237","-4.251806","United Kingdom","","","['recHS8demBFmKb22l']","['recixxJ16wm9FctVG', 'recHS8demBFmKb22l']","","","['rectRdaW2KqxqP2t9']"
"","United States | New York |  | New York |  |  |","","","New York","","New York","United States","40.7127753","-74.0059728","North America","['recH6wGtBEWllzppH', 'recFaKuU5aPDyOfE3', 'recaTNhKNwVP5evzB']","","","['recG7SUIz6pvsvg3i', 'reciKanDjl39UXMvg', 'recIZtpzK4hZYDakS', 'recMsnc0e6OgXr1aC', 'recuYLheRHmbhJgZd', 'rec5sONwofExbhe48', 'recgRPR22UcvKgjOW', 'recerCscJ6gCyER3n', 'recWFQNS5srh9WHip', 'reckOCJmMFcP5dpw6', 'recvwSp0WeueWiBFK', 'recvwswagU6zhi2vI', 'recDF60xfX7sF3sLc', 'recuXPDrzKMBwvzOg', 'recyeYgw3XITCOoJZ', 'recQtkTByx3bZaw5O', 'recQ6JuOWcBN0XZ8x', 'recoopNkVKNfNgP4v', 'recAbJ9JyRkvwB2im', 'recdgyKbtwncm0Omu']","","","['recYSrjwSFwZSgEKy', 'recMGjN1H8qwuEvxj', 'recMp5y3Tocz94VfN', 'rec4dj4yaen0N3dTE', 'rec5KRL7sGpNTOoVV', 'recqzswVbz1bfZzg6', 'rectH3tRHQF7uiE7W', 'recpAm2PzFTq91Mx9', 'recZNVJ90KD05eCck', 'recwcaQ9zQ5bobgfZ', 'recnZ5YxEBNIC92CE', 'recwA9JoZmNFAMIiH', 'reckOcUHGIbOlWanv', 'recp3QsrVL1qq9X5W', 'recrmxNGUsg9GK4Rb', 'recZvoV1quKxOhZS4', 'recW4JWxgZImZYiiS', 'reccKeGcZUzh7i0HQ', 'recaNAN4MF7UapHo1']"
"","England |  |  | London |  |  |","","","London","","","England","51.5073509","-0.1277583","United Kingdom","['recyKY0HA63RzQZUt', 'recxhlp5iUPvgdeIX']","","['reczVaLj5CDIriU3j']","['recIWdnCrgqasEO15', 'recapYiXekf8xNDQT', 'recYXgLIYfIg1v6Cn', 'recKEibDaZR5lVWM1', 'reckXXgx27CN1tEY3', 'recvpI1Nk5htvCu6R', 'recn322IBv3wBkap7', 'recukzaLMst1GNNmK', 'recOUHpXmAS33mFq4', 'receiNdmllg7IfTF1', 'recLIkL0Hp85Zq3Rf', 'rec229lkSBoNb7i3G', 'rec4Pn9rnTsyItC62', 'recDhUjmqHlibUEc2', 'recjoSv4ZWyI1Aoz9', 'recVDtNAlti2lKQpI', 'rec8HwUOaPaXNUB5L', 'recEfLxQpz4RgVeX6', 'recjMdaGAOzf4pj42', 'recRm2LsAhDcOaZmE', 'recZtbbo7mAl4Sydh', 'recY34t6aliNZ4ww9', 'recGgTnUYNeAOVC2V', 'recj1PL2F1bAOr78B', 'recCiN7Yu8idiUutB', 'recJ0wyUqJBWJzUHJ', 'reccKWQfK9yNho0cg', 'reccSGU8kU2t8fM9j', 'recxy7mA4zZXuHDjT', 'recCn78wgJQM9luTt', 'recsf80wMl6uNapfp', 'reccjn7pTI9aDjkf9', 'receIx2AnitDITJEY', 'recsdXo9WkioA0bYa', 'rec7aP7iJF8fbsKZu', 'reczQiWSO5lDIhJVs', 'recRlvzASI7dPjYPT', 'recPTArtwrBVJRKLJ', 'rec5SYfotia38aNU2', 'recj37FKTLqq4S8rT', 'rec2NRiPCHbU0tnkR', 'recDYkGz4mDpQ9ust', 'recLfQYCCboLZVJUv', 'recDtBMnRwvtRnfL8', 'recFkBr0ABxB5G999', 'recs7xfKKyjh51HaC', 'recTiM0XmbpYGW2CI', 'recIzypL5bXQt9Vz0', 'rec9FeLIuSHnUuzxK', 'recV4ojUIfyZiOBpT', 'rec9sSobJWy6MVGjt', 'recVNkhCFn1UX69XM', 'recdE13B8zWdnmEaZ', 'receesTEnMQPmPFUK', 'recpwyzf61zMxnvWi', 'recJdqUAdTjw4YVGI', 'recSNuAbFmzviNFkE', 'reczVaLj5CDIriU3j', 'recCXSWCPfW3blF1M', 'recIbjag6UzvFT5bq']","","['recQsYvcz5sDNEbm2', 'rectQ4ap5xpkkOrxL', 'recMcneUJ4MceH6KC', 'recHR20gVqd4bm2bs', 'recCxgdy6Hd8kogL5', 'reci5TPh9a1sB08xZ']","['recwEsh5Tw69SKKxs', 'recYuhEHEsKJJlPca', 'recifZEhB2ZUSENMD', 'rec6zErNxMQQtE9Ca', 'recRYWGuCCdGLxHES', 'recdGgY0o0DkiM6D3', 'recfaNQZXQqcIKRCd', 'recOu1HZ8xVuuerh6', 'recZq6hutwO4rDLSD', 'recJ652GDasheQpai', 'recWiUbhKs8nt4OMK', 'recN2fMNnOIP9iWI7', 'recOnF1AnpkeZdONq', 'recThUKCUORkgTCg8', 'recWEcJ7TFPmMYblz', 'recrSGSa1sTci59oL', 'recV9IxmrFASlv6Xz', 'rec1T4oa00MIylKeV', 'recPQWEBCjP285yD3', 'recNWHt6ldGWZUUCm', 'recmkGubr4iv7JebB', 'recX4dEUA0GkPgMZJ', 'reciZJBpUK74kJWQ4', 'recf2yaPvQ8r6ctqq', 'recNCQvkX4rwkYsMc', 'recAIoiNigYHgZBH3', 'rect6ZRO6rREp2HLJ', 'recCIkUytzrO91C0j', 'recEGTV3t9L1gjIG9', 'recfAjkQ9fqFAi6Ez', 'recC9LLHjudAktNhQ', 'rec3eYjy4BvLGUHyy', 'rec45S9SLNM5W0PoM', 'rec6pOx7AwSC5yTdM', 'recGNAceIjLqQfvF4', 'rec1oiNjVz83a6wwg', 'recEvYGmhpXJ33jdL', 'rec95XK9W3P2fUemO', 'recJxuE5tJjGAS4YK', 'rech1r506NbuPGMAP']"
"","Hungary |  |  | Budapest |  |  |","","","Budapest","","","Hungary","47.497912","19.040235","Europe","","","","['rec0a8W0tQpBkawFX', 'recbCCy1M0uY54Azm']","","",""
"","South Africa |  |  | Grahamstown |  |  |","","","Grahamstown","","","South Africa","-33.3106292","26.5255946","Southern Africa","['recffqOROamsfEquY']","","","","","","['recANXTnQGphGp7zP']"
"","United States | Minnesota |  | Minneapolis |  |  |","","","Minneapolis","","Minnesota","United States","44.977753","-93.2650108","North America","","","","['recSfKiSGGjVAPYme']","","",""
"","Angola |  |  | Luanda |  |  |","","","Luanda","","","Angola","-8.8146556","13.2301756","Southern Africa","","","","['rectr4E3Das67yIzC']","","",""
"","Japan |  |  | Tokyo |  |  |","","","Tokyo","","","Japan","35.6761919","139.6503106","East Asia","","","","['rec5od57xTwTx6eSE']","","",""
"","United States | Texas |  | Clarksville |  |  |","","","Clarksville","","Texas","United States","33.6106648","-95.052722","North America","","","","['recWVCJQtGOwVa8H0']","","",""
"","United States | Indiana |  | Indianapolis |  |  |","","","Indianapolis","","Indiana","United States","39.768403","-86.158068","North America","","","","['recawANNHCSMCrEpX', 'rec1YKMaCDgOJMfBV']","","",""
"","Nigeria |  |  |  |  |  |","","","","","","Nigeria","9.081999","8.675277","West Africa","","['recahTTqkeDRZm90U', 'recSAyWCdGJYoAKa8', 'recMgQGniYEYTIQAa']","['recfbPgfmcff2fgIJ', 'rec5vfrsVyQ2ePPIV']","","","",""
"","England |  |  |  |  |  |","","","","","","England","52.3555177","-1.1743197","United Kingdom","","['recFE2D9lqYdBNJwW']","['rechdVSVJbSP6QcFc', 'rec7sJvmXBQSHbw5B', 'reciz96RpS7a6Tfdk', 'rec8LLBr3kz6wL55L', 'rectD6frFbQdnq79Q', 'recB937904R7lvpjJ', 'rectZ4k842ciruRNg', 'recSahOozfEqltU4l', 'recvqsGOHSlmZBb2A', 'reczW1xTa4yT7BEWb', 'recZDAkmZBhXxoquu', 'reci1xu92HzRVVvsr', 'rec0cCj4fAzfHgIiz', 'recuKVUrazAgEYPeJ', 'recYHtPwTgayWhFXj', 'recgLIxjmfMhXlBO7', 'recpaFivITqyqdA11', 'recrro4HSefnmA0k3', 'recjOPGNMzF65SZjF', 'rec5mxekHWRzTmxCl', 'recETQtfMWdgXq0jV', 'rechkuCpxCcGPILDP', 'reciwYDgwkQwZvOoR', 'recnsN4TsZ9Vj5UpL', 'recAwGfa2AxXepv6f', 'recothROpiX8Y6fAZ', 'recM5SJcz7vLZ32nx', 'recNIKZkE6w9azghf', 'recIGHShhdq6GTyHR', 'rec8CnyupRKZAdaqG', 'reczP6vZWty660Kdz', 'recisEYHhKHyTJeUw', 'recqGJ37ASUbuaoEX', 'recR6OAzT384D9Qy4', 'recQyczOiYUmHtmfF', 'recpXeYLFCZqm898R', 'recOMd91oxah6oL4v', 'recdGTUvUOkiQbqtC', 'recf3lfasse2EO0FX', 'recDLVmCs928JtL7Z', 'reczSi8FlJXC3KBSm', 'recZLHl68TUv6b8dS', 'recxzdvpqrCdeW8Pk', 'rec0tpCCwr5Lf1Xly', 'recIHvOKttgiYR6n3', 'recwl4sR3eh8UWyh5', 'rec6hi2Jt7HfCsF9H', 'reco9RHOHDN5C0rOU', 'reccpUUyOPeNRYrUE']","['rec7sJvmXBQSHbw5B', 'rectD6frFbQdnq79Q', 'recZDAkmZBhXxoquu', 'recgLIxjmfMhXlBO7', 'recpaFivITqyqdA11', 'recothROpiX8Y6fAZ', 'rec0lg8r9CxOFWpHc', 'rec8CnyupRKZAdaqG', 'recqGJ37ASUbuaoEX', 'rec5zMRhcI22OF5cZ']","","","['recf8YEtzFv2dtwSv', 'rec5gdqtMb4CfspvO', 'recuhXe3rNI9vEehL']"
"","Senegal |  |  | Joal |  |  |","","","Joal","","","Senegal","14.1811693","-16.8502879","West Africa","","","","['recak4e9sxTjxOjd6']","","",""
"","Scotland |  |  |  |  |  |","","","","","","Scotland","56.4906712","-4.2026458","United Kingdom","['rec1RTV8ZzSrPKjA5']","","['recSjXsrt0GgGHyVZ', 'recdhKtdcsWB22du2', 'recJXo88bdzBfnRNr', 'rec5XChd2XG9hFvYm', 'recixxJ16wm9FctVG', 'rec7yd2vxqqO4xynp']","['recIi9ncw9uFSuA39', 'rec8bOIN1dxStVDKQ', 'recrOhsuWg1QU9AlZ', 'recu2DmMWxYY5jPGo', 'recr5eLKwVAE5924X', 'recDe0VlK5VbUzs8A', 'recKj1VWWAIE4Fmlt', 'recbsUFQdYqRpr7H5', 'recnNDsThEH6E3zUY', 'recG02m0h7P13qUPO', 'recR41Hip65NndkI3', 'rechzutfOzU9IaZCz', 'recM2DHD7vNJozUvC', 'recFKWJx4BGH6EPMc']","","","['recqMdo3yMds3VHmg']"
"","Austria |  |  | Vienna |  |  |","","","Vienna","","","Austria","48.2081743","16.3738189","Europe","","","","['recrBQOcoM6g3ILeS', 'recoUbyXKhaJpQftA']","","",""
"","Guinea |  |  |  |  |  |","","","","","","Guinea","9.945587","-9.696645","West Africa","","","","['recDEQ85QFx9JyvrX', 'recu1VeNuOWIRzP3T', 'recOBKis9NzvPZYQE', 'rec6NOg1Nr5FOP1ha', 'recxsdkTnqgLW445O']","","",""
"","Nigeria |  |  | Ogidi |  |  |","","","Ogidi","","","Nigeria","6.1452777","6.9048148","West Africa","","","","['recnvzoLKFGW7rk3s']","","",""
"","South Africa |  |  | Bontebokskloof |  |  |","","","Bontebokskloof","","","South Africa","-29.788981","30.8326663","Southern Africa","","","","['rec3Vo3EZQy6PiIA6']","","",""
"","Gambia |  |  | Banjul |  |  |","","","Banjul","","","Gambia","13.4548761","-16.5790323","West Africa","","","","['recLCVc9i8eIL3f3F']","","",""
"","Nigeria |  |  | Enugu |  |  |","","","Enugu","","","Nigeria","6.5536094","7.4143061","West Africa","","['recPcA0b3qATWrGry']","","","","",""
"","Uganda |  |  | Kampala |  |  |","","","Kampala","","","Uganda","0.3475964","32.5825197","East Africa","","['recM1dyqKWiqRYoN3']","","","","",""
"","Scotland |  |  | Dumfries |  |  |","","","Dumfries","","","Scotland","55.070859","-3.60512","United Kingdom","","","","['recdhKtdcsWB22du2']","","",""
"","Congo |  |  | Pointe-Noire |  |  |","","","Pointe-Noire","","","Congo","-4.769162","11.866362","Central Africa","","","","['recvG8oGW0bZ50wMg']","","",""
"","Poland |  |  | Poznan |  |  |","","","Poznan","","","Poland","52.406374","16.9251681","Europe","","","","['recUWl0375Pc3m4NU']","","",""
"","Ireland |  |  |  |  |  |","","","","","","Ireland","53.1423672","-7.6920536","Europe","","","","['recRbUwkYpYsUohvc', 'recfNr56CnW7GklYM', 'recRJ5vHznmcAdRPo', 'recPUR3PZHwoY0yAV', 'reci5hGpjWU2LVLpt', 'reczAbICR6Y70DT36', 'recQN9e500mLDlGLH', 'recbDpQNL8nffMl2m', 'recfVuwDy7rzttFzT', 'recjvw7KAc43DGDpE', 'recjhCJcViSSE7dhp', 'recWMrvnznDkA7YuL', 'rec1xVXJkRGnR4uHA', 'recv1ryQWltrnsnaE', 'recL4SsQVQEGeZTT8', 'reccg3dSP2NfZqjHn', 'recfjus4xjXGFbdXl', 'recZG4idLja2DUUYp', 'reciVqOK8Vi9jSF5c', 'recbqFZCAKVgoRIxc']","","",""
"","South Africa |  |  | Oudtshoorn |  |  |","","","Oudtshoorn","","","South Africa","-33.6007225","22.2026347","Southern Africa","","","","['recmfxxcjwJjKNIoh', 'rec027AG3XbKI0CpG']","","",""
"","Madagascar |  |  | Arivonimamo |  |  |","","","Arivonimamo","","","Madagascar","-19.0098182","47.1800893","East Africa","","","","['recZVxhcJTrcPWsjI']","","",""
"","England |  | Cambridgeshire | Cambridge |  |  |","","","Cambridge","Cambridgeshire","","England","52.2048325","0.1201662","United Kingdom","['recZFYMBREZQRsDhX']","","","","","",""
"","Switzerland |  |  | Zurich |  |  |","","","Zurich","","","Switzerland","47.3768866","8.541694","Europe","","","","['rec2acSlCh5Vczz60']","","","['recfCLRKIF5Bo85xA']"
"","United States | Minnesota |  | St. Paul |  |  |","","","St. Paul","","Minnesota","United States","44.9537029","-93.0899578","North America","","","","['recpzNXgp9WMb9d1A']","","",""
"","Madagascar |  |  |  |  |  |","","","","","","Madagascar","-18.766947","46.869107","East Africa","","","['recZVxhcJTrcPWsjI', 'recrdsVlH93SsjCi0', 'recEMs15YrEWRj1BW']","['recjnuAGVb1UcZoOR', 'recR8CdZZ2Um4UfBU', 'recBJSall54uydQyu']","","",""
"","United States | Mississippi |  | Laurel |  |  |","","","Laurel","","Mississippi","United States","31.6940509","-89.1306124","North America","","","","['rec4ilhnd0ndfeIzZ']","","",""
"","United States | Connecticut |  | New Haven |  |  |","","","New Haven","","Connecticut","United States","41.308274","-72.9278835","North America","['rec8vWvWplSZjSkzs']","","","","","","['recC9sFvBrouVi7J2']"
"","Scotland |  |  | Blaiklaw |  |  |","","","Blaiklaw","","","Scotland","55.782081","-3.7184416","United Kingdom","","","","['recSjXsrt0GgGHyVZ']","","",""
"","Republic of the Congo |  |  |  |  |  |","","","","","","Republic of the Congo","-0.228021","15.827659","Central Africa","","","['recoETvjJtZyeoJXj', 'recUwB8JluBKgNZla', 'recNe5FNxssKKuZ6H', 'rec8lrDaTKmE2lvqT']","","","",""
"","South Africa | Eastern Cape |  | Tarkastad |  |  |","","","Tarkastad","","Eastern Cape","South Africa","-32.0078739","26.2718021","Southern Africa","","","","['recrvlQwVJRpdVuFF']","","",""
"","Madagascar |  |  | Maroantsetra |  |  |","","","Maroantsetra","","","Madagascar","-15.4353987","49.7392575","East Africa","","","","['recEMs15YrEWRj1BW']","","",""
"","Lesotho |  |  | Khojane |  |  |","","","Khojane","","","Lesotho","-28.95504","28.16014","Southern Africa","","","","['recaosyRXSVIXuhs8']","","",""
"","South Africa |  |  | Johannesburg |  |  |","","","Johannesburg","","","South Africa","-26.2041028","28.0473051","Southern Africa","","['recdyv1TRQaItm0y3']","","['recf5Z9G12f80NPpD']","","",""
"","Netherlands |  |  | Amsterdam |  |  |","","","Amsterdam","","","Netherlands","52.3675734","4.9041389","Europe","","['rec08sc49Zoy2kPvp']","","","","",""
"","Scotland |  |  | Alford |  |  |","","","Alford","","","Scotland","57.233323","-2.704753","United Kingdom","","","","['rec5XChd2XG9hFvYm']","","",""
"","Nigeria |  |  |  |  |  |","","","","","","Nigeria","9.081999","8.675277","West Africa","","['rech0eHKyND1bH52P']","['recyvt24cT50lB666', 'recaCiJPKa01202RA', 'recePxY600kj8FBDo', 'recVFPpzi89nRR9VN', 'rectpmBqIZAXKbx3C', 'reck0MkqYQ7e6DJSs', 'rechL1G0NTL0bLIf7', 'recCIZyuupInwSxMd', 'recoaB1GnGdqqBs6f', 'recnvzoLKFGW7rk3s', 'recUdpNKsfxviPAXO', 'recVMiOD3DjuctSx4', 'recyg23HOJCZ1VlKG', 'recefnT5xU87UYWvs', 'recgvor0FwdavbL6D', 'rec0ru8zGOZRVF25P', 'rec4TMdtYBWxTJolP']","['recOalo8oAibl8Xtt', 'recn5vOXpkFT7rkL7', 'recmVYtORprmaViu5', 'recipshxtsatpr5gw', 'rec7Ee4GJwMd5QDdO', 'recLiQTikQ9pVVAJZ', 'recaO3tBkdqvoeKf1', 'reclJHtAVkvhAcAiQ', 'reczMcIqZrrYjtL1f', 'recuB3ukYLGtUQovD', 'reci6eF72jrtj90ZB', 'recYSDVjT7ijXZUTD', 'recr2RdtjQqv7m29u', 'recpK7h86lYls1KRg', 'recveUoWwfr2UZm3s', 'recQjGF1X3WKy2aHK', 'recbxru1EDvsnjOgD', 'recaqKepS5xBTBP7H', 'recX1PDmPaw16cQ4R', 'reccXjFwxDTA00iWN', 'recrVJuXCJhkjBNOd', 'recllDJCxQuK6XvSa', 'recnWBYNWisPKZBeW', 'recFomq61BDfTrBFn', 'recWtmfdDgalsx2Dw', 'rec2ra1R9Dyv25Gkw', 'recRZgb3XqAlaF2oZ', 'recfYMtzyS3PXXYj5', 'recE6TZem6UAqus6z', 'recNKToJpYDQVIHBM', 'recyg23HOJCZ1VlKG', 'recefnT5xU87UYWvs', 'recBIiSYSrR5eaiFt', 'recpTvsGrwUGao4g8', 'rec1s9Vztzt4yuUKt', 'reczpaEDT98h0FLrP', 'rec5iYuoEStZ8bSXl', 'recd2F3fi97dQuOv1', 'recMnOTXCy6k8fLk8', 'recNRfnsjGQ8Lqvj5', 'recBaFpoXO9XS2PGD', 'recaWhIacDR4eCnIl', 'recMf6HZ8RTutnfvT', 'recACcFq4ymzzMJth', 'recWgd9eoMPVaE0eq', 'recL8hpsgW0jaxn0H', 'recthQaP8LyCeclzA', 'reciJiSshfLnVGuX6', 'recZeBVl3Y4BhZNHU', 'recBkhBemKlYDgKeH', 'rec4F5skhMpEmbeAi', 'recY86AJK83z6l2BD', 'recbx3iRzyWa9U0jt', 'recIStx7rboZkmCNP', 'recSafRwE5tc4EbJV', 'recaMtStaRtCEIbTd', 'recg41Oxl5SqJOPHt', 'recQVxCEXh2dQTcew', 'recfvsoVlonz5dCyy', 'recmmNuikBmz0TKRc', 'recQh91766Y7deprK', 'recwZEjfIF7EvBU5C']","","",""
"","Sweden |  |  |  |  |  |","","","","","","Sweden","60.128161","18.643501","Europe","","","","['recisrgYNYUTny0ju']","","",""
"","Switzerland |  |  |  |  |  |","","","","","","Switzerland","46.818188","8.227512","Europe","","","","['recI73jPVse8b2nzZ']","","",""
"","Somaliland |  |  | Buuhoodle |  |  |","","","Buuhoodle","","","Somaliland","8.2363238","46.3384816","East Africa","","","","['rec347fc8GJPI2YU6']","","",""
"","Netherlands |  |  | Leiden |  |  |","","","Leiden","","","Netherlands","52.1601144","4.4970097","Europe","['recroW4ydBS0auPGe']","","","","","",""
"","United States | Massachusetts |  | Amherst |  |  |","","","Amherst","","Massachusetts","United States","42.3732216","-72.5198537","North America","","","","['recnsY0aR9Dxv6GlD']","","","['recfQfdrVOmme1uCH']"
""," -  |  |  |  |  |  |","","","","",""," - "," - "," - ","Southern Africa","","","","","","",""
"","Northern Ireland |  |  | Belfast |  |  |","","","Belfast","","","Northern Ireland","54.597285","-5.93012","United Kingdom","","","['recv8V00fKoiYQtnn']","['recNxDJh2gJAPjPe1', 'recv8V00fKoiYQtnn', 'recqBIIpsvPR5UWiN']","","",""
"","United States | New Jersey |  | Princeton |  |  |","","","Princeton","","New Jersey","United States","40.3572976","-74.6672226","North America","['recN1uW0LC1QN5XlA']","","","","","",""
"","South Africa |  |  | Dundee |  |  |","","","Dundee","","","South Africa","-28.1649792","30.2343141","Southern Africa","","","","['recNxSuMR3HwvsMzB']","","",""
"","United States | Oklahoma |  |  |  |  |","","","","","Oklahoma","United States","35.4675602","-97.5164276","North America","","","","['recxrAroDVExQyDuZ', 'recgLsQ2MyKMcmXHt']","","",""
"","Malawi |  |  | Kadango Village |  |  |","","","Kadango Village","","","Malawi","-14.1183479","35.2066038","Southeast Africa","","","","['rectYof4MkqUHDRj5']","","",""
"","England |  |  | Bristol |  |  |","","","Bristol","","","England","51.454513","-2.58791","United Kingdom","['recVOwy4ITchMY2FW']","","","['recogCUc5r8neGjpz', 'recepmDhv2vMdoqLK', 'recSahOozfEqltU4l', 'recOMd91oxah6oL4v', 'recZLHl68TUv6b8dS']","","",""
"","United States | Virginia |  |  |  |  |","","","","","Virginia","United States","37.4315734","-78.6568942","North America","","","","['recX8IoHi3E4NbDp2', 'recrZKCfAyoXcQvNa']","","",""
"","Greece |  |  |  |  |  |","","","","","","Greece","39.074208","21.824312","Europe","","","","['recHU33J932r79r9l', 'recmyORTR9bwNJU3Q', 'recSNUDcvfBTfviar']","","",""
"","England |  |  | Leeds |  |  |","","","Leeds","","","England","53.8007554","-1.5490774","United Kingdom","['recEeyZVc9QXzsiTd']","","","['recq5tHwzk2fdojqM']","","",""
"","England |  | Oxfordshire | Oxford |  |  |","","","Oxford","Oxfordshire","","England","51.7520209","-1.2577263","United Kingdom","['recsVmNbjmzURpGHR', 'recDk7ljMos1v2dUP', 'recYuPEffOeD0cFqa', 'recrhODa26EIDTvU7', 'recJnnOqTpCeGdsjY', 'recEqG5dBw94tTtzv', 'rec3NDDGoorZnv7z3', 'recVmompF5jPP33w2']","","","['recMPIrMbsOxDD63r', 'rec3HGmZ6x5qieCG5']","","","['recTIPdOT4JfYKq1H', 'recbNp9MetC9Zh7Vb', 'rec7O9P02N5JYACpL', 'rec7c89CnxnnSPDc4', 'recSvbrLU4aJumIBC', 'recNZ2gSzosBb9OAE']"
"","United States |  |  |  |  |  |","","","","","","United States","37.09024","-95.712891","North America","","['rec3DIsHZQ25VZ5bq']","['recunujo70YYBZTXG', 'recuXPDrzKMBwvzOg', 'rec8fLrsqxPrUg5wY', 'recY2ybRtnsUee5Ou', 'recpA77pd4FlFrzvP', 'recLaYTsRyIfONHJs', 'recqeSJw96aJqvVvi', 'recJSOq4xIzUqHtco', 'recknd51Y4dAGoNjh', 'recadIxfaUYPEPHuU', 'recf7j9w4SJPboZEA', 'recaV8MZLMLV7lEWE', 'recePQOo5PdlrUPux', 'recbY54BXcslQFYNu', 'recSuyino6mKtxmJt', 'recsd6HZbPwYQJxyr']","['rec2tgB2tpVTKuUOa', 'recuq6uBvOPFIFCd9', 'recHA96QSwZgU4kiW', 'recqLtJWaXfmMWVxJ', 'rec2Trk9ISkV8szjq', 'recXS5NpExeXgxj6B', 'recgBlf4pTJozKjIQ', 'recTqQVkqkrVaMY6r']","","","['rec9fVmduIVCvIuYi']"
"","United States | District of Columbia |  | Washington |  |  |","","","Washington","","District of Columbia","United States","38.9071923","-77.0368707","North America","['recToOUA1UEd85jUw']","","","['recI0WZMxeDUEhWPQ', 'rec3kdkVkT9mqgfQs']","","","['rec2J03ky1D2kKFsY']"
"","United States | New York |  | Ithaca |  |  |","","","Ithaca","","New York","United States","42.4439614","-76.5018807","North America","['rec95sc81VPrfTRmS']","","","","","",""
"","United States | Louisiana |  | New Orleans |  |  |","","","New Orleans","","Louisiana","United States","29.9510658","-90.0715323","North America","","","","['recneBd5QPpwoCDaZ']","","",""
"","England |  | Oxfordshire | Oxford |  |  |","","","Oxford","Oxfordshire","","England","51.7520209","-1.2577263","United Kingdom","","['recQQRWRNiBObCxBy']","","","","",""
"","Martinique |  |  | Basse-Pointe |  |  |","","","Basse-Pointe","","","Martinique","14.8672508","-61.1155622","Caribbean","","","","['recBGxdDtUBIWKsiH']","","",""
"","South Africa | Kwa-Zulu-Natal |  | Vryheid |  |  |","","","Vryheid","","Kwa-Zulu-Natal","South Africa","-27.7654196","30.792458","Southern Africa","","","","['rec8RAmvlFLJR28di']","","",""
"","United States | Hawaii |  | Honolulu |  |  |","","","Honolulu","","Hawaii","United States","21.3069444","-157.8583333","North America","","","","['recQvMYTghjChUVFP']","","",""
"","Germany |  |  | Berlin |  |  |","","","Berlin","","","Germany","52.5200066","13.404954","Europe","","","","['recxM4lD6WcK6f8CT', 'rec3sl5yM4LhMMCYG']","","",""
"","Madagascar |  |  |  |  |  |","","","","","","Madagascar","-18.766947","46.869107","East Africa","","['rech4KcqdToHl5Nqi']","","","","",""
"","South Africa |  |  | Pretoria |  |  |","","","Pretoria","","","South Africa","-25.7478676","28.2292712","Southern Africa","['recH9TBBrkV84E3LN', 'recfxpWENyF4GiUSV', 'recSHPobbhlO2G6Xl']","","","['recOabSQ6blN4olzk', 'recj4sz6YrzN5IVD4', 'recWURjoeJ4LXWY8J', 'recFd4e5sHTNFzx36', 'recnwp0DpbKWkwNjL', 'recr8N4GpyvBaRJpo', 'recnza8GYjj7NI95v', 'recuFaEtqjksP7NVm']","","","['rec3VgUjaueKkTIGz', 'recurMm8dQFEhDvSS', 'rec4H8d6jhSapdDNa', 'recdwKjjqKnggf8Ux']"
"","Nigeria |  |  | Umunumo |  |  |","","","Umunumo","","","Nigeria","5.6578278","7.2922646","West Africa","","","","['recyvt24cT50lB666']","","",""
"","South Africa |  |  | Cradock |  |  |","","","Cradock","","","South Africa","-32.180971","25.6509915","Southern Africa","","","","['recSR2YvfvgMIIpxA']","","",""
"","United States | Indiana |  | Bloomington |  |  |","","","Bloomington","","Indiana","United States","39.165325","-86.5263857","North America","['reczLw3NAvmnc9Jzd']","","","","","","['recb2wIrs5inTJl00']"
"","United States | New York |  | West Hills |  |  |","","","West Hills","","New York","United States","40.8273364","-73.4381838","North America","","","","['recJ5PMNoOxfx1Efb']","","",""
"","Russia |  |  |  |  |  |","","","","","","Russia","61.52401","105.318756","Europe","","","","['recGr3TyS7g6gP3Du', 'recsP1vtoLCCC9f4R']","","",""
"","Nigeria |  |  | Oyo |  |  |","","","Oyo","","","Nigeria","7.8429579","3.9368439","West Africa","","","","['recCIZyuupInwSxMd']","","",""
"","India |  |  |  |  |  |","","","","","","India","20.593684","78.96288","South Asia","","","['rec8GbIPcxbdIV3eV', 'recu6JCnStKCAi7D9', 'recDLVmCs928JtL7Z', 'recJE6El4X73ScR3v']","['rec2aGIoPkt2LRlGR', 'recVX1nGzQHDGtUN2', 'recebqBuqubhg98AY', 'recD5OSC9cPSxOL0q', 'reckq4ijQdrgund15', 'recFT3TCFyz9i72Vh', 'reciZqBJxvR98SRfJ', 'rec9RKV8iEPgGipfP', 'rec6O1txYMeP9AK39', 'rechGI4g3oFcv4FxL', 'recD5eKt7kJWNFWjM', 'recIIOkQINfwoZxdJ', 'rec20pTO7lptMAKqE']","","",""
"","Belgian Congo |  |  | Katakokombe |  |  |","","","Katakokombe","","","Belgian Congo","-3.3978664","24.4203028","Central Africa","","","","['recNe5FNxssKKuZ6H']","","",""
"","Angola |  |  |  |  |  |","","","","","","Angola","-11.202692","17.873887","Southern Africa","","","['rectr4E3Das67yIzC', 'recvBmojsDC4O1e7o']","['rectvNPHAoCTJ64Ve']","","",""
"","India |  |  | Delhi |  |  |","","","Delhi","","","India","28.7040592","77.1024902","South Asia","","['rec60V0yE1PYKsTtM']","","","","",""
"","Italy |  |  | Florence |  |  |","","","Florence","","","Italy","43.7695604","11.2558136","Europe","","","","['recRz0RfTpOkWoaWQ', 'rec9cWgfleBqh6266']","","",""
"","Gold Coast |  |  | Kumasi |  |  |","","","Kumasi","","","Gold Coast","6.6875605","-1.6231629","West Africa","","","","['recUrQjrnpAWIRwa3']","","",""
"","United States | Illinois |  | Evanston |  |  |","","","Evanston","","Illinois","United States","42.0450722","-87.6876969","North America","['recOABs3UiDRlfSlx']","","","","","","['rec6sNX6gdEu4WG7S']"
"","North Macedonia |  |  | Skopje |  |  |","","","Skopje","","","North Macedonia","41.9981294","21.4254355","Europe","","","","['recQ4muyGCSr6mkAr']","","",""
"","France |  |  | Paris |  |  |","","","Paris","","","France","48.856614","2.3522219","Europe","","['recY7m7FZkEfPONWs', 'rec94WvLrff2vaLYB']","","","","",""
"","South Africa |  |  | Alexandra |  |  |","","","Alexandra","","","South Africa","-26.1033012","28.0976369","Southern Africa","","","","['recUYZGLjW6Qnd5Ma']","","",""
"","Somaliland |  |  |  |  |  |","","","","","","Somaliland","9.4117434","46.8252838","East Africa","","","['rec347fc8GJPI2YU6']","['recgQ1AdD40ACssbz']","","",""
"","United States | New Jersey |  | Newark |  |  |","","","Newark","","New Jersey","United States","40.735657","-74.1723667","North America","","","","['recIFRaIlB4nRocRe', 'reccThVLt1cW3LWST', 'recFCKGNWx6aLhZS2']","","",""
"","United States | California |  |  |  |  |","","","","","California","United States","36.778261","-119.4179324","North America","","","","['recqiPyTDMUWBg7op', 'reciAKYdj0HQturUE']","","",""
"","United States | Pennsylvania |  | Lewisburg |  |  |","","","Lewisburg","","Pennsylvania","United States","40.9645293","-76.8844101","North America","","","","","","","['recpItF1ONItRuAzh']"
"","Sudan |  |  |  |  |  |","","","","","","Sudan","12.862807","30.217636","East Africa","","","","['rec8JR9NYj06TPDo4', 'recwydzJl6hUimmY7']","","",""
"","England |  |  | York |  |  |","","","York","","","England","53.9599651","-1.0872979","United Kingdom","","","","['rec99yQwuIGmVddk6']","","",""
"","Iran |  |  |  |  |  |","","","","","","Iran","32.427908","53.688046","Middle East","","","","['recAJEj0ScwAENpSi']","","",""
"","Nigeria | Osun |  | Edunabon |  |  |","","","Edunabon","","Osun","Nigeria","7.5293","4.4542","West Africa","","","","","","",""
"","United States | Connecticut |  | Stamford |  |  |","","","Stamford","","Connecticut","United States","41.0534302","-73.5387341","North America","","","","['rec92CWyBDOlqpaNX']","","",""
"","Vietnam |  |  | Saigon |  |  |","","","Saigon","","","Vietnam","10.8230989","106.6296638","Southeast Asia","","","","['recFQSoj1rL4wffPw']","","",""
"","Chile |  |  |  |  |  |","","","","","","Chile","-35.675147","-71.542969","South America","","","","['recfxPlFXDcDPqULK', 'reca4IRs0tHXYre02']","","",""
"","United States | New York |  | Buffalo |  |  |","","","Buffalo","","New York","United States","42.8864468","-78.8783689","North America","['recdo19tqBNQPsxsz']","","","","","",""
"","British India |  |  | Bombay |  |  |","","","Bombay","","","British India","18.9573688","72.8152621","South Asia","","","","['rec8GbIPcxbdIV3eV', 'reccCm6S0ChAe0sfg', 'recEv3ORPA10l1lIG']","","",""
"","Togo |  |  |  |  |  |","","","","","","Togo","8.619543","0.824782","West Africa","","","","['recFRJZM8k9OBVhsG']","","",""
"","United States | Illinois |  | Oak Park |  |  |","","","Oak Park","","Illinois","United States","41.8850317","-87.7845025","North America","","","","['recoUzUGLSKjxNv6P', 'recxaTXgR30nSt9Mg']","","",""
"","Mali |  |  |  |  |  |","","","","","","Mali","17.570692","-3.996166","West Africa","","","","['recNjSgeiMEJ7ewS6']","","",""
"","Nigeria |  |  | Lagos |  |  |","","","Lagos","","","Nigeria","6.5243793","3.3792057","West Africa","","['recy83aQqYYf5KEIb', 'rech9DpK6uJEbZ7sQ', 'recQyxHKcBuTW5pjw', 'recQhyh07x7Ioi0gU', 'recjXL8MW3MWXFUZc', 'rec8b5z1Ifc1fCpJJ', 'recnFOh6FaYnWYt9m', 'recd1BRPPNZWgRYjr']","","","","",""
"","United States | Montana |  | Anaconda |  |  |","","","Anaconda","","Montana","United States","46.1262998","-112.9478359","North America","","","","['recOrCTKKdh93V9SX', 'rec9higGbSPBXZjGy']","","",""
"","Malaysia |  |  |  |  |  |","","","","","","Malaysia","4.210484","101.975766","Southeast Asia","","","['rec0HH1jNx1SEJngM']","['recrEEVR9ewUFekRs', 'recM19XeObARKWpOz']","","",""
"","French Algeria |  |  |  |  |  |","","","","","","French Algeria","36.7648031","3.0388428","North Africa","","","","['recB1tTX6FbKkE2hz']","","",""
"","United States | Illinois |  | Chicago |  |  |","","","Chicago","","Illinois","United States","41.8781136","-87.6297982","North America","","","","['recVgdhv54fe1z0Jf', 'receWyGs0Wodrgk6q', 'recIOaOS5KO956OVM']","","",""
"","Malawi |  |  |  |  |  |","","","","","","Malawi","-13.254308","34.301525","East Africa","","","['rectYof4MkqUHDRj5', 'recQJTQzjeqoBWeWr']","","","",""
"","French Equatorial Africa |  |  | Mpili |  |  |","","","Mpili","","","French Equatorial Africa","-14.88526","27.75709","Central Africa","","","","['recoETvjJtZyeoJXj']","","",""
"","Wales |  |  |  |  |  |","","","","","","Wales","52.1306607","-3.7837117","United Kingdom","","","['recgKCf2vqdVJR7p1', 'recgt4tvsf65IybdA']","['rec0TeA88d2VxBcB5', 'recgKCf2vqdVJR7p1']","","",""
"","South Africa |  |  | Postmasburg |  |  |","","","Postmasburg","","","South Africa","-28.3092768","23.1084191","Southern Africa","","","","['reckQhFrbYOuK3V92']","","",""
"","Ghana |  |  |  |  |  |","","","","","","Ghana","7.946527","-1.023194","West Africa","['recPX3XUEBb9KwitW']","","['recFhzehzUMByYazu']","","","",""
"","Paraguay |  |  |  |  |  |","","","","","","Paraguay","-23.442503","-58.443832","South America","","","","['recGkhrMUVT2gnMX5']","","",""
"","Zambia |  |  | Lusaka |  |  |","","","Lusaka","","","Zambia","-15.3875259","28.3228165","Southern Africa","['recbiwBbCoGgytdZD']","","","","","",""
"","France |  |  | Paris |  |  |","","","Paris","","","France","48.856614","2.3522219","Europe","['recOf0Z9po2QQFbW3']","","","['recrvdJ8tPCqqfSG7', 'reciogqUjQEUEPl6A', 'recervmt1NUJd0Qfh', 'recjsmoQMxpUuoglu', 'recgDiSW3GeCbQHye', 'recmQGbKC6nbUiibH']","","","['recAozQptTZ6nswBB', 'recw3t5szjEHXsMWm', 'recR7CVkmjpykdG1E', 'recPdt5HdAPzg4omb', 'recW2pTDSRlLApYgk', 'recIgKoaxLcLEXP8P', 'recS75HUNrLr3MEYf', 'recTJYfIlT6D6C88j', 'rec12eqlZgbUIMLN5', 'recTK1L05DqoWpuIC']"
"","Mandatory Palestine |  |  | Acre |  |  |","","","Acre","","","Mandatory Palestine"," - "," - ","Middle East","","","","['recePtvPmZFvhcg9K']","","",""
"","Uganda |  |  | Gulu |  |  |","","","Gulu","","","Uganda","2.7724038","32.2880726","East Africa","","","","['recgVGEAbgMUHgS6u', 'recfLEJy5UAIea5Jd']","","",""
"","Angola |  |  | Huambo |  |  |","","","Huambo","","","Angola","-12.7739761","15.7468535","Southern Africa","","","","['recllfmaEZQceuJfd']","","",""
"","France |  |  |  |  |  |","","","","","","France","46.227638","2.213749","Europe","","","['recWQattok1ssNJxV', 'recsxIc9AdNFOsew5']","['recpHpAODTX1qv3np', 'rece5rlY6luGXmpwK', 'recPYYTIgKEfzKiQ1', 'recYBUTkKOZOI7Gnz', 'recDJvVhTwPU2XaCG', 'recPalwjfMWADhY18', 'recj83OY9th7QQf54', 'recBBLUHp5ZTBFP6o', 'rec34xZZ6m4yfhzU7', 'receCC7SMa4oBV4ui', 'recAxcn2hwe7bbcB3', 'recb501sbxnYWqVdj', 'recDSSoUr9kka26tf', 'rec8IGVnSzK52RsdH', 'recr03WWXAdYBnUfz', 'recBzLazzGw97bV5W', 'recr633NSOF8Se8Y2', 'rec0SUB56tDsH7k3d', 'recbKG5eok64fPlBJ', 'recamEaDFOlnkAiSZ', 'reccQd58U2iiYJmIX', 'recjbeaf8Opm33QP0', 'reckINngWY0gdb7Pl']","","",""
"","Ghana |  |  | Cape Coast |  |  |","","","Cape Coast","","","Ghana","5.13151","-1.2794744","West Africa","","","","['reclA6dqgVc7TOa6N', 'recW9GaUo8lw5wueH']","","",""
"","England |  |  | Suffolk |  |  |","","","Suffolk","","","England","52.1872472","0.9707801","United Kingdom","","","","['recOjn7HUYFMQ56Az']","","",""
"","Mali |  |  | Katibougou |  |  |","","","Katibougou","","","Mali","12.9254634","-7.527614","West Africa","['recfbKWss7GadnWul']","","","","","",""
"","United States | Illinois |  | St. Charles |  |  |","","","St. Charles","","Illinois","United States","41.9141945","-88.3086867","North America","","","","['rec2OI85PUFWXSae8']","","",""
"","United States | Minnesota |  |  |  |  |","","","","","Minnesota","United States","46.729553","-94.6858998","North America","","","","['recIhQAyNtoV0Mcj1', 'recreBMYWCO3qIhxX']","","",""
"","United States | Nebraska |  | Lincoln |  |  |","","","Lincoln","","Nebraska","United States","40.813616","-96.7025955","North America","","","","","","","['recWwpRXPSg7r8O1r']"
"","Belgium |  |  |  |  |  |","","","","","","Belgium","50.503887","4.469936","Europe","","","","['recWWf17V0lMocdvr', 'recalpzWbCOQP8Rws']","","",""
"","Netherlands |  |  | Veenendaal |  |  |","","","Veenendaal","","","Netherlands","52.0263009","5.5544309","Europe","","","","","","","['rec4aSNWmoy3sRoRr']"
"","Cameroon |  |  |  |  |  |","","","","","","Cameroon","7.369722","12.354722","Central Africa","","","['recACGUnIhpSVMEqp']","['rec2d57yD543BFZ0K', 'recsPLlBQHeyEhvlG', 'recOYXqRDjF2qCQwG']","","",""
"","Canada |  |  |  |  |  |","","","","","","Canada","56.130366","-106.346771","North America","","","['recxCeWptCWNMPIQn', 'rec37AatwXwF1s2Sd']","['rec9iMLytjMU3kJbX', 'recyjGkKMCBNxkQvh', 'recTmV4iL8Vwyj2OP', 'reci5Hk3Wcm20rXP9', 'recWjCTfFUbGNybaw', 'rec8KA0TLbkUrbXvt', 'recqukBZ4kzeNOfqh', 'rec4lHOYmvZNK3wAH', 'rec2rvvsTx7GLKtfA', 'recZHZb9Zv2DjE7Yy', 'recaFv0GVGnwpNrE2', 'recv0oIkmfYwBz1Ff', 'recemmdscKwdjNhff', 'recBMdgo68HD6daDe', 'recoy18x5ra4hTQmF', 'recTMWP8XYR81HGM3', 'recDpFWhXmLIVIlEU', 'recSib3MalKyytHZe']","","","['rec97bAMIKVFEUR3l']"
"","England |  |  | Newcastle |  |  |","","","Newcastle","","","England","54.978252","-1.61778","United Kingdom","","","","['rec33yIYeqJEDIEah']","","",""
"","United States | Oklahoma |  | Tulsa |  |  |","","","Tulsa","","Oklahoma","United States","36.1539816","-95.992775","North America","","","","['recn33k246s79jLy2']","","",""
"","Germay |  |  | Frankfurt |  |  |","","","Frankfurt","","","Germay","50.1109221","8.6821267","Europe","","","","['rec2ywJlWBLBthgbb']","","",""
"","Morocco |  |  | El Jadida |  |  |","","","El Jadida","","","Morocco","33.2316326","-8.5007116","North Africa","","","","['rec3YZuserKv1PtkA']","","",""
"","Portuguese Guinea |  |  |  |  |  |","","","","","","Portuguese Guinea"," - "," - ","West Africa","","","","['recFYqfVEqPgCCsQ4']","","",""
"","South Africa |  |  | Doornfontein |  |  |","","","Doornfontein","","","South Africa","-26.194851","28.0552003","Southern Africa","","","","['recmHnZX7a0eUE9Ev']","","",""
"","Northern Ireland |  |  | Castledawson |  |  |","","","Castledawson","","","Northern Ireland","54.7782341","-6.5579191","United Kingdom","","","","['rectDFqfqInRPvhl5']","","",""
"","Byzantine Empire |  |  |  |  |  |","","","","","","Byzantine Empire","37.6865716","-97.3625225","Europe","","","","['rec4bOKF46wa97pt1']","","",""
"","Canada |  |  | Galt |  |  |","","","Galt","","","Canada","43.360053","-80.306239","North America","","","","['recnTD3i7phHhTkvi']","","",""
"","Uganda |  |  |  |  |  |","","","","","","Uganda","1.373333","32.290275","East Africa","","","['recgVGEAbgMUHgS6u', 'recjMrlgAtcjmrLBz', 'reco5AQqyOcowz0FJ']","['recy8wk19ltb9715q', 'recobQCR87Q63IqGL']","","",""
"","Turkey |  |  | Yayladere |  |  |","","","Yayladere","","","Turkey","39.227956","40.069078","Europe","","","","['recxNhNxQa5B6DqAt']","","",""
"","United States | Massachusetts |  | Milton |  |  |","","","Milton","","Massachusetts","United States","42.2495321","-71.0661653","North Africa","","","","['recK40yDkUUXJxZUK']","","",""
"","Italy |  |  | Naples |  |  |","","","Naples","","","Italy","40.8517983","14.26812","Europe","","","","['recHw6yWEDccD64zX']","","",""
"","South Africa |  |  | Durban |  |  |","","","Durban","","","South Africa","-29.8586804","31.0218404","Southern Africa","","","","['recyJeoWitFNAMp2w', 'recGJxbg4qSSVnvpY', 'rec70c7EM6QbOcJl0', 'rec0jCPLfRU0BmNpm', 'recULqCquhvbA98I4', 'recwfoFrzPswsjMC8', 'recaP2Ibi44tXzgUx', 'recMX2UoqHtVhMT5e']","","",""
"","Germany |  |  | Cologne |  |  |","","","Cologne","","","Germany","50.937531","6.9602786","Europe","","['recVN66dL5hwx15ra']","","['recJE6El4X73ScR3v']","","",""
"","Nigeria |  |  | Umuahia |  |  |","","","Umuahia","","","Nigeria","5.5249526","7.4922407","West Africa","","","","['reczYjEYrkL8HqOG5']","","",""
"","Trinidad |  |  |  |  |  |","","","","","","Trinidad","10.691803","-61.222503","Caribbean","","","","['recROgaUtUljzyMEs', 'recOAo9tpaVRs1HHn', 'recE4aX5dsEVKrn6r', 'recZq2gXv1fvd9VKv', 'recO20IakehC6eyUn', 'recRqtX2owiHMnF2k', 'recxR691C33SPLfgI', 'recoNWiyOsqFG7Pm0']","","",""
"","British Kenya |  |  | Nairobi |  |  |","","","Nairobi","","","British Kenya","-1.295695","36.816929","East Africa","","","","['rechavThPPqhFV64s', 'recNJLeN6D7EC8qf1']","","",""
"","Canada |  |  | Montreal |  |  |","","","Montreal","","","Canada","45.5016889","-73.567256","North America","","['recuxLLvc1IFYVuhC', 'rec4eegQy6FlZyAXn']","","['recn5RYTSX684wtmr', 'reclOv6Bd6ET6n7qq', 'recR9mjmsntha2LLC']","","",""
"","South Africa | Limpopo |  | Mankweng |  |  |","","","Mankweng","","Limpopo","South Africa","-23.8836683","29.7078785","Southern Africa","['recCAdTOoBGWiEd5h']","","","","","",""
"","South Africa |  |  | Mafeking |  |  |","","","Mafeking","","","South Africa","-25.855978","25.64031","Southern Africa","","","","['recm99UmRJ3DUCfl9']","","",""
"","South Africa |  |  | Worcester |  |  |","","","Worcester","","","South Africa","-33.65389","19.4616074","Southern Africa","","","","['recnDGEbptY24VLdU']","","",""
"","Nigeria |  |  | Ojoto |  |  |","","","Ojoto","","","Nigeria","6.0641892","6.8645856","West Africa","","","","['recaCiJPKa01202RA', 'rec0l4llkZcZgkKUE']","","",""
"","Nigeria |  |  | Ikenne |  |  |","","","Ikenne","","","Nigeria","6.8717415","3.7105118","West Africa","","","","['rec1qluAyUA6WJ9Dg']","","",""
"","Ghana |  |  | Wheta |  |  |","","","Wheta","","","Ghana","7.946527","-1.023194","West Africa","","","['rec5d4xA9pgrR4HkY', 'recUrQjrnpAWIRwa3', 'reclA6dqgVc7TOa6N', 'reczNpvl1EwWWxyqi', 'recgEohEDoimFCmSW']","['recv9iMfbA5gwezaB', 'reczNpvl1EwWWxyqi', 'recZ6wXKhboafeoVg', 'recgEohEDoimFCmSW', 'rec77AAAPQAdS62Oz', 'recz0uoxtQ8uUY3XV', 'recQNSj0zIZxD6HkX', 'recWTLXWhZ8VOHQ2h', 'recJLABlbRoQNnm1P', 'recLD2m78zhoHqHoB', 'recwDbN9VWeKzIwAD', 'recZgDJrIGh1WwoRw']","","",""
"","Ghana |  |  | Accra |  |  |","","","Accra","","","Ghana","5.6037168","-0.1869644","West Africa","['recv0vSFJtgo1KsP9']","['recsH41uokKhSzGUy']","","['recSrXqtZW9VQno31', 'rec389jENk3mf2iV5', 'recmrBsMooaLJrkLn']","","",""
"","Germany |  |  | Dusseldorf |  |  |","","","Dusseldorf","","","Germany","51.2277411","6.7734556","Europe","","","","","","","['recL01X8UZUIDeFPa']"
"","United States | Ohio |  | Hicksville |  |  |","","","Hicksville","","Ohio","United States","41.293106","-84.7619032","North America","","","","['rec2cfbvCJiYc16ma']","","",""
"","South Africa |  |  | Vrededorp |  |  |","","","Vrededorp","","","South Africa","-26.1939215","28.0178768","Southern Africa","","","","['recmnzl9N5CHYVA8U']","","",""
"","Kenya |  |  | Nairobi |  |  |","","","Nairobi","","","Kenya","-1.2920659","36.8219462","East Africa","","","","","","","['recu8F8fP49uw1loO', 'recT1nJy2Bk8xORu7', 'recmvzviO1TUAI7uq']"
"","Panama |  |  | Panama City |  |  |","","","Panama City","","","Panama","8.9823792","-79.5198696","South America","","","","['recNzJ37Iu1pzXynh']","","",""
"","England |  |  | Birmingham |  |  |","","","Birmingham","","","England","52.486243","-1.890401","United Kingdom","","","","['rec0pFrc7LuHXzfXi', 'recNBZ7ES6k1bNI1T', 'rec1D6ZDWbZv4uHHP', 'rec5hQbngNwhJkVKd', 'recIcirUPsKkqjRH7', 'recVR4vpjeGeQt12b']","","",""
"","United States | Tennessee |  | Nashville |  |  |","","","Nashville","","Tennessee","United States","36.1626638","-86.7816016","North America","","","","","","","['recdgGJaTkAlOezSq']"
"","Nigeria |  |  | Zungeru |  |  |","","","Zungeru","","","Nigeria","9.8097475","6.1553498","West Africa","","","","['recoxPAWb7IzyCird']","","",""
"","Zimbabwe |  |  | Salisbury |  |  |","","","Salisbury","","","Zimbabwe","-17.8216288","31.0492259","Southern Africa","","","","['recJS8H6ldyvxrumr', 'rec73lt530j2VIs0L']","","",""
"","Senegal |  |  | Kolda |  |  |","","","Kolda","","","Senegal","12.9107495","-14.9505671","West Africa","['recvXJmpvZNMP7BcY']","","","","","",""
"","New Zealand |  |  |  |  |  |","","","","","","New Zealand"," - "," - ","Oceania","","","['rec6sdlh8Th5vfXIt']","['rec6hi2Jt7HfCsF9H']","","",""
"","United States | Pennsylvania |  | Pottsville |  |  |","","","Pottsville","","Pennsylvania","United States","40.6856456","-76.195499","North America","","","","['recy0qTCM4VN7DTxn']","","",""
"","Wales |  |  |  |  |  |","","","","","","Wales","52.1306607","-3.7837117","United Kingdom","","","['recIJGOEOAVG7xX6i']","['recvRiEuXiCdgpzh6', 'recHQYrZ5TJYfPBxf', 'recvHX8tdxgfYTSt4', 'recTkKgPq4JCXoX3R', 'recsqDG79zdH6V6KX', 'recil5d0c8euskYy1', 'receZVCGokJ9d55q1', 'recThhyxDS1y9EzxS', 'recctFwntYudQzKX7', 'recqvvC8PrSFVhs9z']","","",""
"","United States | Illinois |  | Springfield |  |  |","","","Springfield","","Illinois","United States","39.7817213","-89.6501481","North America","","","","['rec7jVTFEwKBmU2Pq']","","",""
"","England |  |  | Laleham |  |  |","","","Laleham","","","England","51.4096047","-0.4881633","United Kingdom","","","","['rec2izhE20U05KHrD']","","",""
"","French West Africa |  |  |  |  |  |","","","","","","French West Africa"," - "," - ","West Africa","","","","['recxX5gqrWkq7tQBb']","","",""
"","Russian Empire |  |  |  |  |  |","","","","","","Russian Empire","59.9357512","30.3206011","Europe","","","","['recdOHxm24y4bvoDB', 'rec2eKvBQ9mxd6jvv', 'rechNFG0WSiu2l5Ct', 'recDiw0EDMMDRRK8t', 'rec24rhToYd21zaPK', 'rec9u1O0x2Y7tb2hL']","","",""
"","Ukraine |  |  |  |  |  |","","","","","","Ukraine","48.379433","31.1655799","Europe","","","","['recMbPmCYFNueYgCO', 'rec7MqjXltY22Kvik', 'recxpXmYVT8aPDZwX', 'recWuMMp9GpclSTc0']","","",""
"","Zimbabwe |  |  | Bulawayo |  |  |","","","Bulawayo","","","Zimbabwe","-20.1457125","28.5873388","Southern Africa","","","","['rec3cDUy5aUaXihQk', 'recWMYmCjTcR8VpCw']","","","['recPJiJVC6COfMOwl']"
"","Poland |  |  |  |  |  |","","","","","","Poland","51.919438","19.145136","Europe","","","['recLqTZDae98TYMgU']","['recrdW5Nf5WTLOUa5', 'rec71wINcb2PDqcKp']","","",""
"","Austria-Hungary |  |  | Kaposvar |  |  |","","","Kaposvar","","","Austria-Hungary","46.3593606","17.7967639","Europe","","","","['recptyxQuyPppx3tL']","","",""
"","England |  |  | Essex |  |  |","","","Essex","","","England","51.5742447","0.4856781","United Kingdom","['recPT1ONeMA1HgGIf']","","","","","",""
"","Germany |  |  |  |  |  |","","","","","","Germany","51.165691","10.451526","Europe","","","","['recqcVDc8XNj3IDs4', 'recMA837SASzlHyQ6', 'recnY4zEoYinbuWvu', 'recNVJaZrDxDMS6y4', 'rece9YzJeQMHxlKT4', 'recNKHfqZUDa6y6Hm', 'recfEX7JkTfc0igup']","","",""
"","Equatorial Guinea |  |  |  |  |  |","","","","","","Equatorial Guinea","1.650801","10.267895","Central Africa","","","","['reclZZbAKws76oas9']","","",""
"","South Africa |  |  | Sutherland |  |  |","","","Sutherland","","","South Africa","-32.4100977","20.670528","Southern Africa","","","","['recshrOtBQNMHpq4c', 'rec8AhHBjKJBxwLRg']","","",""
"","South Africa |  |  | Johannesburg |  |  |","","","Johannesburg","","","South Africa","-26.2041028","28.0473051","Southern Africa","","['rec5gKZMw7rQLBtIQ', 'recFOmqAqBfCC79uU', 'rec5Y1GJPZpzKjeSK', 'recqpcuJBL9iIJ89u', 'recmBz4CcKHFk1uh3', 'reca7Lt0CYAhHS612', 'rec6q3LDFF4HWGzFZ']","","","","",""
"","Nigeria |  |  | Port Harcourt |  |  |","","","Port Harcourt","","","Nigeria","4.815554","7.0498442","West Africa","","['recFGwvD80SoDlOrv', 'recV7BWQ6aliWnxLj']","","['rec8gQXH1CreUIxyW']","","","['recPBP8oC3CAHNCNQ']"
"","Nigeria |  |  | Ogbomosho |  |  |","","","Ogbomosho","","","Nigeria","8.1227496","4.2435893","West Africa","","","","['recKwHcxW62FZErxO']","","",""
"","England |  | Kent | Tunbridge Wells |  |  |","","","Tunbridge Wells","Kent","","England","51.132377","0.263695","United Kingdom","","","","['recgxOO8pgaL7Auqo']","","",""
"","Malawi |  |  |  |  |  |","","","","","","Malawi","-13.254308","34.301525","Southeast Africa","","['recuDT8TthLMC5yNK']","","['recq9dyMfGOTkGOsp', 'recpzVpVIrU43DmQa', 'rec7FuAGnn7tD4aWM', 'recRcfNSaO5wZkPPM', 'recaiqEDHqXtO7VsA']","","",""
"","Russia |  |  | Moscow |  |  |","","","Moscow","","","Russia","55.755826","37.6172999","Europe","['receuDqpqo8xr28QS']","","","","","",""
"","Namibia |  |  |  |  |  |","","","","","","Namibia","-22.95764","18.49041","Southern Africa","","","","['recFll3DeMApoKxrH', 'recUs3Qo2LJWGImzI']","","",""
"","United States | Washington |  | Seattle |  |  |","","","Seattle","","Washington","United States","47.6062095","-122.3320708","North America","","","","['recJqrMpqXddxHQzD', 'recSuyino6mKtxmJt']","","",""
"","Uganda |  |  | Kampala |  |  |","","","Kampala","","","Uganda","0.3475964","32.5825197","East Africa","['recFKIYYYEWNcbcY4']","","","['recqzDH5Hc95vBk8m', 'recLYWsNy2fp8R3Gg']","","",""
"","Nigeria |  |  | Ososa |  |  |","","","Ososa","","","Nigeria","6.7957362","3.8528061","West Africa","","","","['rec3jGDSWXS0iMvLA']","","",""
"","United States | Kentucky |  | Guthrie |  |  |","","","Guthrie","","Kentucky","United States","36.6483777","-87.1663917","North America","","","","['recWzXRzJq19jeAU5']","","",""
"","South Africa |  |  | Natal |  |  |","","","Natal","","","South Africa","-28.5305539","30.8958242","Southern Africa","['recY9QUxlK5jIbGxW', 'recl8yZWsRr224FDB', 'recTDp9p9mV2vaJqB', 'recjqa6eUjpAP3b1t']","","","['recDsJ9oJQDxxoWAw', 'rec0JA3fcEBxiEzCq', 'recixJ2uVSxAkkZSD']","","",""
"","Swaziland |  |  |  |  |  |","","","","","","Swaziland","-26.522503","31.465866","Southern Africa","","['recLb4N3FlJZ1XWFr']","","","","",""
"","England |  | West Yorkshire |  |  |  |","","","","West Yorkshire","","England","53.8108","1.7626","Europe","","","","['recv5SsOvtcLQjoEP']","","",""
"","Southern Rhodesia |  |  |  |  |  |","","","","","","Southern Rhodesia"," - "," - ","Southern Africa","","","","['recI9zaNkjUQfHLkS', 'rec0GZn9ejqZH9Xmq', 'recLHjN40PlyM2TiY', 'recYH31dNrMgG71Ks', 'recyWF5PGhClx2jfC']","","",""
"","Zambia |  |  |  |  |  |","","","","","","Zambia","-13.133897","27.849332","Southern Africa","","","","['recIPO8hdCMZ4KZYI', 'recKxST4rPuV0Cjdb']","","",""
"","Canada | British Columbia |  | Vancouver |  |  |","","","Vancouver","","British Columbia","Canada","49.2827291","-123.1207375","North America","","","","['recECRgncODbABvRL', 'rec0RdafnDOXEzgXP']","","",""
"","United States | Missouri |  |  |  |  |","","","","","Missouri","United States","37.9642529","-91.8318334","North America","","","","['recBJfTlmguJFyIOu']","","",""
"","South Africa | Cape Province |  | Bonnievale |  |  |","","","Bonnievale","","Cape Province","South Africa","-33.9158529","20.0806996","Southern Africa","","","","['rechNpA4zoaK9Yc3C']","","",""
"","France |  |  | Verson |  |  |","","","Verson","","","France","49.155543","-0.451351","Europe","","['recEIaTdLzYrDo2ev']","","","","",""
"","Algeria |  |  |  |  |  |","","","","","","Algeria","28.033886","1.659626","North Africa","","","","['rec8TNqHPXRonX6Jy', 'recBr1vTSVQJJHVyc', 'recuJFQi9owwjvX3T']","","",""
"","Guadeloupe |  |  |  |  |  |","","","","","","Guadeloupe","16.265","-61.551","South America","","","","['rec1ViYCgn901WjWE']","","",""
"","South Africa |  |  | Cape Town |  |  |","","","Cape Town","","","South Africa","-33.9248685","18.4240553","Southern Africa","['recVM2xVqBCg8BQhs']","","","['recLczZVD2Z4hI4vr', 'recnjis4vHRCf3s8c', 'recDWpP5WDVttv0VH', 'recIUsnaXMSOqMy2v', 'recevWi0MZtdFcV9j', 'rec7DAmkvsDHlrNzO', 'recGwJuMwzhPywibz', 'rec1EPLBCPy0LDy5w', 'recIRFvSnw0jH0WYy', 'rec9BzTCspfp9DFRX', 'recFFCBrnP6ZUxGxj', 'recGNQxAE1DTvf2gI', 'recZXb5HI7MySyCbh', 'rec3TvLEZAkwzko7q', 'recz4jgR4xm8xN7fy', 'recVxU26CaC3ZlyEt', 'recrxyfvYXE7yTXxu', 'recF4AjgkvE0in5pz', 'recCVwQnX7u83Co6a', 'recgyuMGxG1dvXNth']","","","['recJkUmlXv4x0tlN2', 'recPbBnEpJ3WVtr8N', 'rec5dk7HZ8DU5csPg', 'recTc4gdzvAJI5AZa', 'recisoZDInQxtYY10', 'recw0UugZNPT5QsdQ', 'recLlNQUGOys2C6an', 'rec6xy9ik5s7rLN09', 'rec2bDTNeNstdrQIU', 'recX6uL2eZZFBFzwG', 'recWbPtiYXFhZlNhW', 'rec6PIMDNKYYCjO1o', 'recimQ0TIxsrvkG07', 'recNqJ1gFIyPSVv1l', 'reczHusx8Z6ETTRlx', 'recVKD1EAGsw7P0rD', 'recb6l2escQ4uBhHr', 'recmNI0G0cDK0OpEx', 'rec9KmjH2WFYYx60c']"
"","Mali Empire |  |  |  |  |  |","","","","","","Mali Empire","34.034802","-118.258121","West Africa","","","","['rec6dDMIvNk7AIT7R', 'rec16Yjb6MdYmczSJ']","","",""
"","South Africa |  |  | Grahamstown |  |  |","","","Grahamstown","","","South Africa","-33.3106292","26.5255946","Southern Africa","","['rec1jRnIgPBBy57UO']","","","","",""
"","Brazil |  |  |  |  |  |","","","","","","Brazil","-14.235004","-51.92528","South America","","","","['recMbhrtdy4N3hc7e', 'recX2XiIWG9nLb1Ov']","","",""
"","Bulgaria |  |  |  |  |  |","","","","","","Bulgaria","42.733883","25.48583","Europe","","","","['recIyEneiUzSImDab']","","",""
"","South Africa |  |  | Kimberley |  |  |","","","Kimberley","","","South Africa","-28.7282384","24.7499112","Southern Africa","","","","['rec85BLC7GPgT038L']","","",""
"","Spain |  |  |  |  |  |","","","","","","Spain","40.463667","-3.74922","Europe","","","['rec6lya9DLfy8pV54']","['rec8r2KhHvbYudC1D']","","",""
"","Nigeria |  |  | Calabar |  |  |","","","Calabar","","","Nigeria","4.9757165","8.3417006","West Africa","","","","['rech5nWHcb3L0cBJj']","","",""
"","Ecuador |  |  | Quito |  |  |","","","Quito","","","Ecuador","-0.1806532","-78.4678382","South America","","","","['recLptiF6MgUnF79M']","","",""
"","South Africa |  |  | Klerksdorp |  |  |","","","Klerksdorp","","","South Africa","-26.8598225","26.6317514","Southern Africa","","","","['rechSmNhfj1jgwdzt']","","",""
"","South Africa |  |  | Fish Hoek |  |  |","","","Fish Hoek","","","South Africa","-34.1340882","18.4187029","Southern Africa","","","","","","","['rec8DulEUrVSSGgs9']"
"","United States | Wisconsin |  | Kenosha |  |  |","","","Kenosha","","Wisconsin","United States","42.5847425","-87.8211854","North America","","","","['recxqYyiN7LsgnaBZ']","","",""
"","South Africa |  |  | Potchefstroom |  |  |","","","Potchefstroom","","","South Africa","-26.7145297","27.0970475","Southern Africa","['recJPnOvcPw7MhMGR']","","","","","",""
"","United States | New York |  | West Point |  |  |","","","West Point","","New York","United States","41.3914827","-73.9559721","North America","","","","['recG9rs7PaFf7pqa7']","","",""
"","England |  |  | Sussex |  |  |","","","Sussex","","","England","50.9280143","-0.4617075","United Kingdom","","","['recgGuMAyQleN6jkV']","","","","['reciivDIRnYHFeL8s']"
"","Sierra Leone |  |  | Freetown |  |  |","","","Freetown","","","Sierra Leone","8.484444","-13.234444","West Africa","","","","['recugwcx3SbztZwpl', 'recRWEwgEX6ZmCQo5', 'reclOMdPoq6COrqHK', 'recUEpJRjdFhXbDhw', 'rec1CSZJBstgJrUI1']","","",""
"","Uganda |  |  | Koboko |  |  |","","","Koboko","","","Uganda","3.4167992","30.9589496","East Africa","","","","['recrBN7ExlZyTFDFw']","","",""
"","England |  |  |  |  |  |","","","","","","England","52.3555177","-1.1743197","United Kingdom","","","['rec0pFrc7LuHXzfXi', 'recWKosoDYpwTVRVQ', 'rec5Tnx28yVpY41xq', 'recgxOO8pgaL7Auqo', 'recFsUKP1V0YoIqxD', 'recssbwVl4ZMpcsql', 'recXJxDOA2VhvdBzK', 'reczbWFBEyPVNzxEr', 'recG85kPHG11zsEod', 'recIcirUPsKkqjRH7', 'recWvCOeDqTxH6Hs6', 'recCXSWCPfW3blF1M', 'recVZJv6CtfCunnjw', 'rec7Bl3AlvcPP0Bg4', 'recnlVlZxVDosThlf', 'rect2pkvP55kfJVwi', 'recWekgi4SZq5YRqE', 'rece8UAgNSbcx2S8s', 'recbCCy1M0uY54Azm', 'rect6cGVmwFASWZyj', 'recPxZvKlepZLiQEK', 'recLI1KPwBGkTaaQX', 'rec0lg8r9CxOFWpHc', 'recircKrzh6xOUf4y', 'recnCqXAfR1y47bCi', 'recdvxG6eXq1AhjEs', 'recQDcfWN0PuYCY7z', 'recJE6El4X73ScR3v', 'recw00cTbaFklD7XY', 'rec5zMRhcI22OF5cZ', 'recePQOo5PdlrUPux', 'recgyuMGxG1dvXNth', 'recf5Z9G12f80NPpD']","['recG8vJEsGfgFKOeY', 'recImOee0Hd15I9Vn', 'recM5hOMF3eHsaiXZ', 'recN1SUeiborccESm', 'recNuIbOfdoJiwZgi', 'reciwYDgwkQwZvOoR', 'recEo7GVDLn7Yqvw4', 'recS7il37wEFBcdRS', 'recxwx2iiXpmzxUcf', 'recJdI2rHbDvKeVMC', 'rec3NQn2sYaueB3tK', 'recIcaMGmcmNrsGGL', 'recqeRpblxFeuDOdv', 'recjbjdbHUGh7Aaw8', 'recUPm0hvJ5jHz9KM', 'recZuAqeIrVWEKn2l', 'recXZsGXWPwEI9hGr', 'recd0MyJ13DAr7ZTN', 'recjTcjSUNXd200BB', 'rec2sPHMxvE2kGbLF', 'recoZLGIgt5JBeV9z', 'recR82VDuVVUt1aBN', 'recA8jWMiM6KVK8sw', 'rec0ORC2y4rfQojnN', 'recsT1y5cMlEYqv5k', 'recXrZg5z1wcM1em6', 'rec3rmrsVpVwr8uaX', 'reccxBFQWIiCppO4O', 'rechvxuOn7aETbyUt', 'recP6fu5197mlZRYK', 'rece2CsSEujds2GfZ', 'recx9RYdZVTHB1JPN', 'recnihRZ5Fh2YbLOK', 'rec55qLNwOi8j6V75', 'recmXMKRd3YCEaSZn', 'recBuxSYZy8XLiytG', 'recubKk3eyJ0TnQ7o', 'recju7csSyfRRJF2g', 'recCygXgJeYcNW4OU', 'recvaRlV5PWHKJhWi', 'recYwNp5a6Ht5pOE8', 'recoCIj0trA7dIWOw', 'recVURsf3vTfnQF2i', 'rec9ZrbC3KgIAJB4N', 'recKDrfTm1CcKhuCk', 'rec0ga3SZzqnkSSMV', 'recKs199Es48E8KWr', 'recccjvENEp5rzXMb', 'rec5OTOKoJTsEuRDT', 'rec9w01xtEtyF8U7n', 'recB1TFwFj2tbCTr5', 'rech0XcrwSn7OgGEI', 'recO6RTTYPrBPOYue', 'recOPkPTqbxHSdoor', 'recbFHWe6f076S21J', 'recAoDHnkZK1XFvF0', 'recxcJwdV2BxbT0bq', 'rec7TgoCcFtuP2Gyy', 'recfxddxVRJRwsb0i', 'recuQ6org137kWaSg', 'rec1Wj8p5fbxOsU34', 'reck7TzbvPYANTBgK', 'recFsUKP1V0YoIqxD', 'recXJxDOA2VhvdBzK', 'rechrvaJEojt0Q2Ad', 'recqr0OQ7IyEDfsLJ', 'recLdVPWktnYdOXF5', 'recXOSegEDFF5THfb', 'recBQLOGKeS7Z5I74', 'recpAeQ5Q011kFt4Y', 'rec0XL7U7V4O7F5q2', 'recicmjFbWEcVike3', 'rec0ceU9u4RTS3DTk', 'recvy6IsddVzytok2', 'recVI0PTapOKT2QpV', 'recRUNUpBtr04HAzJ', 'recY174xxlamuXx8r', 'recALtdTeMbngSJPA', 'recvpv3Qo97LxPQry', 'recftqHKor1P0rpmU', 'recSG3XmmCc3QtbVW', 'recUMVcJFvhtrZ1Lv', 'rec9Ar5AfvD69tO1c', 'recpAK5lPPCHolFz0', 'recdv9K2pgc6mYkVw', 'recKk5H230dn14ukm', 'recHUsFhfZR7pY7fN', 'rec1WH7LyVK5Omg4F', 'recL69nVv755Tb5ox', 'recGYurHf9PQxSm1S', 'recj3HYSaf17SUqOb', 'recdgtm5gjW1dqUWN', 'recevOOpmTZhS7dJa', 'rechHNFpODim4avPB', 'recLsvpWFjeuqysGJ', 'rec2OdVfQrJj5AvjF', 'recnQnJjhkSg5Mvlz', 'reczCgvOVGxQbSmSK', 'recMxJ6HUiq93N6xf', 'rec1Zj1qTdtaNsvzq', 'recyohwJ83sqAS9Bd', 'recgmHFBxbem47Vzy', 'recWynSQmYPz5Sp2g', 'recUuQBVPXhtfwilo', 'rechVFl2EXFglTxD2', 'recZXiasIm2RPD4NA', 'rec0EYALezIVKlsnT', 'recD8IoMwBew6Ufc9', 'recgzAExzTHlymvAv', 'rec4eOnDVgxRLPOlk', 'recbzfznB3QtsTpPf', 'rec8oqO5Jr7shLU4k', 'recfv18owFvgS0IMj', 'rec7P6vtK3DCfvdjg', 'recx3CS2WeLQawccZ', 'reckkrrlDgwnk0gnQ', 'recy9Pn1QXtbJZBYc', 'recnjqiERtBMoViLY', 'recp8vaQxPc7gUtdd', 'rec52bDOl6veBesV0', 'rec4E4OZ2HMLti3NE', 'recbDG4Yt5F5ApQO1', 'recIRgAuo00Zr8eKa', 'recP2aev8ZrJ5qht1', 'recz3uHwXGQK5lyZ4', 'recJjlomlEmaCA1gH', 'recD2IzZnJU4lQG2m', 'rec3yPC5N3X95VXz8', 'recaewBtTQQVyMJcq', 'recwXqnjB2a7G7cT4', 'rec5RGPhjr5QVcNVI', 'recVpbBOY7O37b59u', 'rec0gKvLRk6SO1DCv', 'recQJQQVyPOJ97KjL', 'rec4f75LZHsz50W5O', 'recPOltVnYxiKEvTC', 'recgiCEDOtaJeq3wX', 'reccuPmZFlCV6pwbc', 'recDGtEr52JzQ1CfR', 'recb4UpG4DctmzESk', 'recVkj86A9ZcVncUR', 'rec7WhaE3XDUhQW6k', 'rectZF1oM1G14zTyu', 'recblLjvBtZF6tU88', 'recliSiEZecFwncex', 'rec1RTIoCSwtNSWoB', 'recvJHvyd3TnH29W5', 'recuuwtn7i09tIEn2', 'recG85kPHG11zsEod', 'recWekgi4SZq5YRqE', 'reczW1xTa4yT7BEWb']","","","['rechPz2WpwDRsLEUp', 'rec16RimSyIhEAGz1']"
"","Tanzania |  |  |  |  |  |","","","","","","Tanzania","-6.369028","34.888822","East Africa","","","","['recw4Q7NWmQ2fX7tE', 'recH27Ky2auv7Sp7X', 'rec3YUtptWp8poDqT', 'reccN8x993YmirmA9']","","",""
"","United States | West Virginia |  | Keyser |  |  |","","","Keyser","","West Virginia","United States","39.4409277","-78.9739156","North America","","","","['rec8fBNjTPHzc7vM8']","","",""
"","Italian Libya |  |  |  |  |  |","","","","","","Italian Libya","32.8935927","13.1923297","North Africa","","","","['recqZaTyKj6vAJ4Lc']","","",""
"","Senegal |  |  |  |  |  |","","","","","","Senegal","14.497401","-14.452362","West Africa","","","['recLlBdYrdtjr0yVi', 'recak4e9sxTjxOjd6', 'recjbq3JoILFn5Hs9', 'recTmnTeK7gO1UOti']","['recHmOjHfJ1FgRJDR', 'rec4DjlcQS6KDahAE', 'recbvdBYaeJ2Q8Ne2', 'rectubwgDvjSCYpBD', 'recxcNfecYnRnhLJ4', 'recZ9CW5iDVc27v4H', 'reccqUxlPOtfbDwPI', 'recB0SYmhFniJPkQ2', 'recNR1rmGAAzwZxQd', 'recQMR0jLL9ubTSvE']","","",""
"","South Africa |  |  | Pietermaritzburg |  |  |","","","Pietermaritzburg","","","South Africa","-29.6006068","30.3794118","Southern Africa","","","","['recs3PZnGmKKcG28g', 'recO3CpG9TDiaaTWf']","","","['recYsLpGsIKdM2gAS']"
"","Malaysia |  |  | Kuala Lampur |  |  |","","","Kuala Lampur","","","Malaysia","3.139003","101.686855","Southeast Asia","","","","['rec0HH1jNx1SEJngM']","","",""
"","Nigeria |  |  | Owerri |  |  |","","","Owerri","","","Nigeria","5.489059","7.0175879","West Africa","","","","['recz2mnCDfu1i4tqb']","","",""
"","South Africa |  | Sharpeville | Vereeniging |  |  |","","","Vereeniging","Sharpeville","","South Africa","-26.6864257","27.8750976","Southern Africa","","['recaBcP1ZhGEokEUx']","","","","",""
"","Belgian Congo |  |  |  |  |  |","","","","","","Belgian Congo","-5.8547432","13.0567605","Central Africa","","","","['recUXgvQLRUJfgtlV']","","",""
"","Madagascar |  |  | Tananarive |  |  |","","","Tananarive","","","Madagascar","-18.8791902","47.5079055","East Africa","","['reckbavsjed7nvlWF', 'recChAjgbcaFWRwwD']","","","","","['reckrETw9bVk4tOW3', 'recNKh0T87EdllMLi']"
"","Madagascar |  |  |  |  |  |","","","","","","Madagascar","-18.766947","46.869107","East Africa","","['recLZi6xLLzCBLcoO']","","","","",""
"","Zimbabwe |  |  | Harare |  |  |","","","Harare","","","Zimbabwe","-17.8216288","31.0492259","Southern Africa","['recAQqTnOakT15n6o', 'recXfScTKzOA5hjyA']","['recVW0TZAK8zp6wSQ', 'rec8DDTzckzOd9J5N']","","","","",""
"","Madagascar |  |  | Antananarivo |  |  |","","","Antananarivo","","","Madagascar","-18.8791902","47.5079055","East Africa","","","","['recrdsVlH93SsjCi0']","","",""
"","England |  |  | Sheffield |  |  |","","","Sheffield","","","England","53.381129","-1.470085","United Kingdom","['rec6wj7mg5gKnb3K1']","","","['recxZ3DRm5Zf9io49', 'recpXeYLFCZqm898R', 'recxzdvpqrCdeW8Pk']","","",""
"","Ghana |  |  | Wheta |  |  |","","","Wheta","","","Ghana","6.0802847","0.9748978","West Africa","","","","['rec5d4xA9pgrR4HkY']","","",""
"","South Africa |  |  | Johannesburg |  |  |","","","Johannesburg","","","South Africa","-26.2041028","28.0473051","Southern Africa","['recGta06IM4TtFbiQ']","['recVm0op4nOx6auTO']","","['reconT8g48tytiTrx', 'recmKim7FuoMzaOgG', 'recwaLa3cKgcYYisb', 'recuPqvJRNvAyaXHH', 'rec9KUNIYQ3YBJgCt', 'recEIdA75IGLQgY75', 'recq0AFd8Wey42hSe', 'recA0467IPumKTsUu', 'rec3hxyKJD8ZzsK78', 'recewm56Fr9YIcbWQ', 'rec0snT7lfxRa4C5n', 'recrTBzagUSlyIYpv', 'recEifJZhiNBCgq22', 'recv1R192Frk4MVig', 'rectknq63WCKxNoLR', 'recFer1iIH2uagP08']","","","['rece7EOBu8vydqpLp', 'recxUG5BNB2m8V6ai', 'recJVi9ZSlrrhYBUg', 'rec5v1FCHwC21w30e', 'recwr89HJC1f53a4v', 'recjqNG1POzQ3sbnr', 'recdhZ0GESVQWoSoa']"
"","United States | Maine |  | Portland |  |  |","","","Portland","","Maine","United States","43.6590993","-70.2568189","North America","","","","['recg0nwcnVFtoRhgF']","","",""
"","England |  |  | Manchester |  |  |","","","Manchester","","","England","53.4807593","-2.2426305","United Kingdom","","","","['recmSogzlVL5eEwLn', 'rec7Bl3AlvcPP0Bg4']","","","['recAuR0DtmznfSixl']"
"","Egypt |  |  | Cairo |  |  |","","","Cairo","","","Egypt","30.0444196","31.2357116","North Africa","","","","['recNSo7SofLVP7SDv', 'recw25zeKJxIDM0HP', 'recE7uV73b0GRo7pX', 'rec4tpnbbBM3U1JwJ', 'recHDI69Jl6hcu9Lr', 'rectdDAFUDVvj5fyF', 'reczP6vZWty660Kdz']","","",""
"","Portugal |  |  | Lisbon |  |  |","","","Lisbon","","","Portugal","38.7222524","-9.1393366","Europe","","['recD31IdZLry4KfEO']","","['recAdi07YIOXT61mn']","","",""
"","Nigeria |  |  | Eluoma |  |  |","","","Eluoma","","","Nigeria","6.7491405","6.0732146","West Africa","","","","['reck0MkqYQ7e6DJSs']","","",""
"","Kenya |  |  |  |  |  |","","","","","","Kenya","-0.023559","37.906193","East Africa","","","","['recTziD00ljcWpj7A', 'recCe6toY4HmVJYcN', 'recztDMBhGzNyxO51', 'recqyToVWXFaHi7Fu', 'rec6Z6RxXGLXWaz83', 'rec9P8W35CzmZWesB', 'recSbA3c2x6wtyafm', 'recpeAAHEHhKrPtXB', 'recv5nG8mdetftTSX', 'reclC7lXsEJuFw5Wl', 'recWT73n8pxQNCcZL', 'recJeqsPcuHj8AvaB', 'reccF65lYjkJsbr8P', 'recRxC34jskR17uWQ', 'rec7uzrobCdUPk21N', 'reco5AQqyOcowz0FJ']","","",""
"","South Africa |  |  | Umjilo |  |  |","","","Umjilo","","","South Africa","-29.8842477","30.9790281","Southern Africa","","","","['rec98H10qfSCl6Say']","","",""
"","Russia |  |  | Zima |  |  |","","","Zima","","","Russia","53.9225852","102.0423865","Europe","","","","['rec06FvvJIuKgO19Y']","","",""
"","South Africa |  |  | Heidelberg |  |  |","","","Heidelberg","","","South Africa","-26.4910013","28.3841777","Southern Africa","","","","['recKPxEcl9BlhXiYJ']","","",""
"","Uganda |  |  | Lira |  |  |","","","Lira","","","Uganda","2.2580829","32.8874067","East Africa","","","","['recbX7ODRcKti0k64']","","",""
"","South Africa |  |  | Simonstown |  |  |","","","Simonstown","","","South Africa","-34.1937654","18.4356653","Southern Africa","","","","['recKMDj6MVQbppqjF']","","",""
"","Nigeria |  |  | Ibadan |  |  |","","","Ibadan","","","Nigeria","7.3775355","3.9470396","West Africa","","['recFLrKzBr8C3R8PF', 'recpY6lKKZ7LvnKQG']","","","","",""
"","Trinidad |  |  |  |  |  |","","","","","","Trinidad","10.691803","-61.222503","Caribbean","","","","['recM69TkcedlSmehr']","","",""
"","French Guiana |  |  | Cayenne |  |  |","","","Cayenne","","","French Guiana","4.92242","-52.3134531","South America","","","","['recsdEU1SDIs0LFa3']","","",""
"","United States | Massachusetts |  |  |  |  |","","","","","Massachusetts","United States","42.4072107","-71.3824374","North America","","","","['receisRXWgT3WHDcp', 'reccBPCdSIndbSIMC', 'recX6BOLWvMlOKRJK', 'recEuSpO0s422thrr']","","",""
"","Nigeria |  |  | Ilesha |  |  |","","","Ilesha","","","Nigeria","7.6395498","4.7588042","West Africa","","","","['recRrYLOEzuzxhWDX', 'rec5b9vAU87OuYZky', 'rec0uaKr84XIHvzv9']","","",""
"","Democratic Republic of the Congo |  |  |  |  |  |","","","","","","Democratic Republic of the Congo","-4.038333","21.758664","Central Africa","","","","['recUwB8JluBKgNZla']","","",""
"","Uganda |  |  | Dokolo |  |  |","","","Dokolo","","","Uganda","1.9130964","33.171699","East Africa","","","","['recjMrlgAtcjmrLBz']","","",""
"","Southern Rhodesia |  |  | Rusape |  |  |","","","Rusape","","","Southern Rhodesia","-18.5326251","32.1238552","Southern Africa","","","","['recBeSK1UyBPg8ii8']","","",""
"","Nigeria |  |  | Aluu |  |  |","","","Aluu","","","Nigeria","4.9339066","6.9437098","West Africa","","","","['rec3kZpshIgKr2IvX']","","",""
"","United States | Massachusetts |  | Cambridge |  |  |","","","Cambridge","","Massachusetts","United States","42.3736158","-71.1097335","North America","","['recFWoscJiIMqnNvN']","","","","",""
"","England |  |  | Durham |  |  |","","","Durham","","","England","54.77525","-1.584852","United Kingdom","['recHzRm3OsxbtjEZ5']","","","['recmBAlHZG6wrP5m1', 'recRTi7rFExPN98Nq']","","",""
"","Senegal |  |  | Dakar |  |  |","","","Dakar","","","Senegal","14.716677","-17.4676861","West Africa","","['recp4dbxWrOOac7tV', 'rec2OE1UaeledZuCg']","","['recTmnTeK7gO1UOti']","","","['reca5WhYzcu8YYGuw']"
"","United States | Florida |  |  |  |  |","","","","","Florida","United States","27.6648274","-81.5157535","North America","","","","","","",""
"","Holy Roman Empire |  |  |  |  |  |","","","","","","Holy Roman Empire"," - "," - ","Europe","","","","['reczFO6E5RFYT4LoJ']","","",""
"","Nigeria |  |  | Nsukka |  |  |","","","Nsukka","","","Nigeria","6.85229","7.39565","West Africa","","['rec510GXLuJfxwZ45', 'recxl6ej1FQPswMb3']","","","","",""
"","South Africa |  |  | Bloemfontein, Free State |  |  |","","","Bloemfontein, Free State","","","South Africa","-29.085214","26.1595761","Southern Africa","['recdxFmL0sXKgIWpu']","","","['recPUEhfoIfOkGfQz']","","",""
"","Democratic Republic of Congo |  |  | Boma |  |  |","","","Boma","","","Democratic Republic of Congo","-5.8499966","13.0499998","Central Africa","","","","","","",""
"","United States | Ohio |  | Cleveland |  |  |","","","Cleveland","","Ohio","United States","41.49932","-81.6943605","North America","","","","['recuVUBEoJYIuVclv', 'recdQSQUB4gPECxW2']","","",""
"","United States | California |  | Madera |  |  |","","","Madera","","California","United States","36.9613356","-120.0607176","North America","","","","['recMziAaPtlxDb9tx']","","",""
"","Canada | Ontario |  | Toronto |  |  |","","","Toronto","","Ontario","Canada","43.653226","-79.3831843","North America","","","","['recwgel5fuQAsnzzt', 'recLOsDVKPh9ooPV3', 'recwLCj8UrhxWo9kx']","","","['rec5Y8Mrc9r3hjojx']"
"","Iran |  |  | Tehran |  |  |","","","Tehran","","","Iran","35.6891975","51.3889736","Middle East","","","","['recp3lPAxBNrFFHlL']","","",""
"","Djibouti |  |  | Djibouti City |  |  |","","","Djibouti City","","","Djibouti","11.5720765","43.1456475","East Africa","","","","['recfsRaJ0pvc8C9Z0']","","",""
"","Argentina |  |  | Buenos Aires |  |  |","","","Buenos Aires","","","Argentina","-34.6036844","-58.3815591","South America","","","","['recSbFUf4JIGOdUZw', 'recLkCjLg0Vgydihs', 'recAjFFkp5HIBnRMA']","","",""
"","Somalia |  |  | Baidoa |  |  |","","","Baidoa","","","Somalia","3.1140502","43.651925","East Africa","","","","['recDufjTZlMUkwTBd', 'recY1j7c27Ou22gZL']","","",""
"","Canada | Ontario |  | Berlin |  |  |","","","Berlin","","Ontario","Canada","43.4516395","-80.4925337","North America","","","","['recq9F0uzWsYqRc8v']","","",""
"","Nigeria |  |  | Enugu |  |  |","","","Enugu","","","Nigeria","6.5536094","7.4143061","West Africa","","","","['reckp60OLwBPXeTaP']","","","['rec2QBz96ecKRMnea', 'recS2XuN0Q73oH43Y']"
"","South Africa |  |  |  |  |  |","","","","","","South Africa","-30.559482","22.937506","Southern Africa","","['recnuGckKJxewboNz', 'recV6SIDInBzdR05U']","['reconT8g48tytiTrx', 'recyJeoWitFNAMp2w', 'recm99UmRJ3DUCfl9', 'recmKim7FuoMzaOgG', 'recQ4TUf5goeHxYMk', 'rec85BLC7GPgT038L', 'recwaLa3cKgcYYisb', 'recSR2YvfvgMIIpxA', 'rec98H10qfSCl6Say', 'recKMDj6MVQbppqjF', 'recDsJ9oJQDxxoWAw', 'recGJxbg4qSSVnvpY', 'rect7duUVcyGen6MV', 'recnjis4vHRCf3s8c', 'recIYFL9RLyOfiM5R', 'recuPqvJRNvAyaXHH', 'recDWpP5WDVttv0VH', 'recIUsnaXMSOqMy2v', 'rec8RAmvlFLJR28di', 'rec9KUNIYQ3YBJgCt', 'recneMUvjVrQSbuEv', 'recEIdA75IGLQgY75', 'recwvJUNl2WoXIFlN', 'recmfxxcjwJjKNIoh', 'rechNpA4zoaK9Yc3C', 'recaQJfzr16EWRkPP', 'recmHnZX7a0eUE9Ev', 'rec2Yzcx8kklIjbf2', 'rec7DAmkvsDHlrNzO', 'recv5SsOvtcLQjoEP', 'recs3PZnGmKKcG28g', 'recGwJuMwzhPywibz', 'recq0AFd8Wey42hSe', 'recshrOtBQNMHpq4c', 'rectv35HppHfjxxWL', 'recA0467IPumKTsUu', 'rec2aX5i6C84JfdbO', 'recPPp1U78NwoKBnL', 'recCwFNqLX7r5i9aY', 'recofS2LKIWHQZcvj', 'recSdUgAywVWYw1JE', 'recNt7QxNcFvu8Zmh', 'reckBzczEyd5oYURz', 'recwVz0EvRwefFtZe', 'recUYZGLjW6Qnd5Ma', 'rec8zA487359Du2ke', 'recnDGEbptY24VLdU', 'recOabSQ6blN4olzk', 'recKPxEcl9BlhXiYJ', 'rec3Vo3EZQy6PiIA6', 'rechSmNhfj1jgwdzt', 'rec3bAHxXJmEpoCaz', 'reckQhFrbYOuK3V92', 'recNxSuMR3HwvsMzB', 'recQank3qa3GAyvJk', 'recyZBkqzfhORmEiA', 'rec1EPLBCPy0LDy5w', 'rec70c7EM6QbOcJl0', 'recIRFvSnw0jH0WYy', 'recmnzl9N5CHYVA8U', 'rec8Q9wLb2s9KWY2r', 'recwfoFrzPswsjMC8', 'recFd4e5sHTNFzx36', 'recQDWAIgdQxx3i0w', 'recT64tLb0zLMG502', 'recvs8peVRoHO3iYw', 'recBEp4MnDvFb4eJr', 'recGyFbA1GbNQNv2r', 'recheoO6RmMVfh0Jp', 'recv1R192Frk4MVig', 'recuCh4yztZ4Yl8iv']","['rectv35HppHfjxxWL', 'recpWtJ1s8jtR26G3', 'rec2aX5i6C84JfdbO', 'recPPp1U78NwoKBnL', 'recyYdJOayNFdDhoC', 'recCwFNqLX7r5i9aY', 'recofS2LKIWHQZcvj', 'recSdUgAywVWYw1JE', 'recNt7QxNcFvu8Zmh', 'reckBzczEyd5oYURz', 'recTcMcAB2fx0w6Wq', 'recwujnJVuzoRyMSZ', 'reczkGYcaV2lO7sJY', 'receOLldtBIurxA8o', 'recrn0SeiqaISlSbx', 'recNt4d58HGooRy0P', 'recQank3qa3GAyvJk', 'recaLYCWTuhiIIM9b', 'recm5Tm8VVZmJrBCG', 'recgsbVxaQ2azyFE1', 'recY1tfRXmz74UOdb', 'recdOZfHT3yNy04Zs', 'recqnKVirSrppg6LQ', 'recqUgQRUXWcU10uO', 'reccTDHxY8KnLIgOu', 'rec8Q9wLb2s9KWY2r', 'recqar3MjMcY149HE', 'recuzGQwB0wEC6leH', 'rec999FE2ILqio28f', 'recqxJmmNVimvjL6x', 'rec5Tnx28yVpY41xq', 'recc1KwMlkK5zEOGZ', 'recHxxQ5y17xDliCK', 'recLq6R2CmvSHyL7O', 'recsKnptk6SkSNTj6', 'recQDWAIgdQxx3i0w', 'recT64tLb0zLMG502', 'recvs8peVRoHO3iYw', 'recBEp4MnDvFb4eJr', 'recssbwVl4ZMpcsql', 'recGyFbA1GbNQNv2r', 'recVb8odmmbsEronx', 'recF9fKrJan0MD0wP', 'recFvAfY5H75OuR2w', 'recRqtwlOvk1CKat6', 'reche5f7pyMstV915', 'recz3nATF5kexehMc', 'recpKhOS7xTyDSkyo', 'reci2zXhB6SOMuKXo', 'recwM1BdxYMPqmnyk', 'recoE7ZyowdGIKAnk', 'recCM1sZ0hNzSG2rX', 'rech40qWphToP8Wsw']","","","['rec1iPMTOgJrYQ4tf']"
"","Northern Rhodesia |  |  | Luanshya |  |  |","","","Luanshya","","","Northern Rhodesia","-13.1435017","28.4163103","Southern Africa","","","","['recQJTQzjeqoBWeWr']","","",""
"","United States | Iowa |  | Iowa City |  |  |","","","Iowa City","","Iowa","United States","41.6611277","-91.5301683","North America","['recVnRXyphLfVe6bd']","","","['rec8fLrsqxPrUg5wY']","","",""
"","Nigeria |  |  | Kano |  |  |","","","Kano","","","Nigeria","12.0021794","8.5919561","West Africa","","","","['recUdpNKsfxviPAXO']","","",""
"","United States | Rhode Island |  | Providence |  |  |","","","Providence","","Rhode Island","United States","41.8239891","-71.4128343","North America","['recdVL2G1iCLzck4v']","","","","","",""
"","South Africa |  |  | Wellington |  |  |","","","Wellington","","","South Africa","-33.6404794","19.0096562","Southern Africa","","","","['recwVz0EvRwefFtZe', 'rec8zA487359Du2ke']","","",""
"","England |  |  | Sussex |  | Hastings |","Hastings","","Sussex","","","England","","","","","","","['reciz96RpS7a6Tfdk']","","",""
"","United States  |  |  | New York City |  |  |","","","New York City","","","United States ","","","","","","","['recYbYT2Vxx7tpgKD', 'recaV8MZLMLV7lEWE']","","","['recQRleAfvaSpEMJE', 'rec4eyJRe74EEVLHh']"
"","United States |  |  |  |  | Amherst  |","Amherst ","","","","","United States","","","North America","","","","['rec8LLBr3kz6wL55L']","","",""
"","England |  |  |  |  | Kent |","Kent","","","","","England","","","United Kingdom","","","","['recB937904R7lvpjJ', 'recdvxG6eXq1AhjEs']","","",""
"","South Africa |  |  |  |  |  |","","","","","","South Africa","","","Southern Africa","","","['rec1WQoh9LikkntYD']","['recIGHShhdq6GTyHR']","","",""
"","United States  |  |  |  |  |  |","","","","","","United States ","","","North America","","","['recJE6El4X73ScR3v', 'recYbYT2Vxx7tpgKD']","","","","['recrgu44Ek6cfFny8']"
"","England |  |  |  |  | Rushden |","Rushden","","","","","England","","","United Kingdom","","","","['recvqsGOHSlmZBb2A']","","",""
"","India |  |  |  |  | Punjab |","Punjab","","","","","India","","","South Asia","","","","['reci1xu92HzRVVvsr']","","",""
"","England |  |  |  |  | Devon |","Devon","","","","","England","","","United Kingdom","","","","['rec0cCj4fAzfHgIiz']","","",""
"","England |  |  | London |  | Barnes |","Barnes","","London","","","England","","","United Kingdom","","","['recAlEQc60dPD9NbL']","['recAlEQc60dPD9NbL']","","",""
"","England |  |  |  |  | Cornwall |","Cornwall","","","","","England","","","United Kingdom","","","","['recuKVUrazAgEYPeJ']","","",""
"","England |  |  |  |  | Barmouth |","Barmouth","","","","","England","","","United Kingdom","","","","['recYHtPwTgayWhFXj']","","",""
"","England |  | Hampshire |  |  | Farenham |","Farenham","","","Hampshire","","England","","","United Kingdom","","","","['recPkrJ57g6Wdavdn']","","",""
"","England |  | Surrey |  |  |  Godalming |"," Godalming","","","Surrey","","England","","","United Kingdom","","","","['recETQtfMWdgXq0jV']","","",""
"","Northern Ireland |  |  |  |  |  |","","","","","","Northern Ireland","","","","","","['recnB3htzAhSGTTHy', 'recqBIIpsvPR5UWiN']","","","",""
"","United States | Massachusetts  |  |  |  | Arlington |","Arlington","","","","Massachusetts ","United States","","","North America","","","","['recY2ybRtnsUee5Ou']","","",""
"","England |  | Cornwall |  |  | Truro |","Truro","","","Cornwall","","England","","","United Kingdom","","","","['recnsN4TsZ9Vj5UpL']","","",""
"","India |  |  |  |  | Andaman Islands |","Andaman Islands","","","","","India","","","South Asia","","","","['recAwGfa2AxXepv6f']","","",""
"","England |  | South Yorkshire  | West Riding of Yorkshire  |  | Cudworth |","Cudworth","","West Riding of Yorkshire ","South Yorkshire ","","England","","","United Kingdom","","","","['recPxZvKlepZLiQEK']","","",""
"","Wales | South Wales |  |  |  |  Rhondda |"," Rhondda","","","","South Wales","Wales","","","United Kingdom","","","['reckPThYA9JTR7Wt3']","","","",""
"","Thailand |  |  |  |  | Bangkok |","Bangkok","","","","","Thailand","","","Southeast Asia","","","","['recM5SJcz7vLZ32nx']","","",""
"","United States | Virginia |  |  |  | Richmond |","Richmond","","","","Virginia","United States","","","North America","","","","['recpA77pd4FlFrzvP', 'recadIxfaUYPEPHuU']","","",""
"","United States | New York |  |  |  | Syracuse |","Syracuse","","","","New York","United States","","","North America","","","","['recLaYTsRyIfONHJs']","","",""
"","Italy |  |  |  |  | Bologna |","Bologna","","","","","Italy","","","Europe","","","","['reciQ6kSif9HNb4Wx']","","",""
"","Australia |  |  |  |  | Brisbane |","Brisbane","","","","","Australia","","","Oceania","","","","['rec06ILglltM8pW38']","","",""
"","Unites States | Missisipi |  |  |  | Columbus |","Columbus","","","","Missisipi","Unites States","","","North America","","","","['recqeSJw96aJqvVvi']","","",""
""," | Isreal |  |  |  |  |","","","","","Isreal","","","","","","","['recTdZ8xMC4U5gzsZ']","","","",""
"","United States |  | Hampshire, |  |  | Basingstoke |","Basingstoke","","","Hampshire,","","United States","","","United Kingdom","","","","['recircKrzh6xOUf4y']","","",""
"","Nigeria | Delta |  |  |  | Warri |","Warri","","","","Delta","Nigeria","","","West Africa","","","","['rec4TMdtYBWxTJolP']","","",""
"","England |  |  | London | Brent | Willesden |","Willesden","Brent","London","","","England","","","United Kingdom","","","","['rec7kFogd01UYBjIc']","","",""
""," |  |  |  |  |  |","","","","","","","","","","","","","","","",""
"","England |  | Hampshire |  |  | Portsmouth |","Portsmouth","","","Hampshire","","England","","","United Kingdom","","","","['recnCqXAfR1y47bCi']","","",""
"","South Africa | Eastern Cape | Sakhisizwe  |  |  | Mbewuleni |","Mbewuleni","","","Sakhisizwe ","Eastern Cape","South Africa","","","Southern Africa","","","","['recA0GlU4rfqJOWYR']","","",""
"","Australia | Victoria |  |  |  | Bacchus Marsh |","Bacchus Marsh","","","","Victoria","Australia","","","Oceania","","","","['recYwTrrpx3mrjIc4']","","",""
"","Zambia (Northern Rhodesia) |  |  |  |  | Ndola |","Ndola","","","","","Zambia (Northern Rhodesia)","","","Southern Africa","","","","['recBDuLn95McZoilc']","","",""
"","India |  |  |  |  | Mumbai |","Mumbai","","","","","India","","","","","","","['recdGTUvUOkiQbqtC']","","",""
"","England |  |  |  |  | Shrewsbury |","Shrewsbury","","","","","England","","","United Kingdom","","","","['recf3lfasse2EO0FX']","","",""
"","Trinidad and Tobago |  |  | Port of Spain |  |  |","","","Port of Spain","","","Trinidad and Tobago","","","Caribbean","","","","['recDLVmCs928JtL7Z']","","",""
""," |  |  |  |  |  |","","","","","","","","","","","","","","","",""
"","United States | Texas |  |  |  | Fort Worth |","Fort Worth","","","","Texas","United States","","","North America","","","","['recJSOq4xIzUqHtco']","","",""
"","England |  |  | Cheshire |  |  Cheadle |"," Cheadle","","Cheshire","","","England","","","United Kingdom","","","","['rec0tpCCwr5Lf1Xly']","","",""
"","England |  |  | London |  | Marylebone |","Marylebone","","London","","","England","","","United Kingdom","","","","['recIHvOKttgiYR6n3']","","",""
"","England |  |  |  |  | Lincoln |","Lincoln","","","","","England","","","United Kingdom","","","","['recQDcfWN0PuYCY7z']","","",""
"","Australia | Queensland |  |  |  | Brisbane |","Brisbane","","","","Queensland","Australia","","","Oceania","","","","['reck9JEFLBrEotW0O']","","",""
"","England |  |  | Cheshire |  | Runcorn |","Runcorn","","Cheshire","","","England","","","United Kingdom","","","","['recwl4sR3eh8UWyh5']","","",""
"","Wales |  |  |  |  | Cardiff |","Cardiff","","","","","Wales","","","United Kingdom","","","","['recgt4tvsf65IybdA']","","",""
"","Spain |  |  | Madrid |  |  Alcal de Henares |"," Alcal de Henares","","Madrid","","","Spain","","","Europe","","","","['rec6lya9DLfy8pV54']","","",""
"","England |  |  |  |  | Norwich  |","Norwich ","","","","","England","","","United Kingdom","","","","['recw00cTbaFklD7XY']","","",""
"","England |  | Hampshire |  |  | Southampton  |","Southampton ","","","Hampshire","","England","","","","","","","['rechLOxAnQrtO5PAV']","","",""
""," | Yorkshire | Bradford |  |  | Keighley |","Keighley","","","Bradford","Yorkshire","","","","","","","","['rec5dzh4POYkDZAzn']","","",""
"","Poland | Silesia |  |  |  | Wroclaw |","Wroclaw","","","","Silesia","Poland","","","Europe","","","","['recLqTZDae98TYMgU']","","",""
"","Italy |  |  | Milan |  |  |","","","Milan","","","Italy","","","Europe","","","","['rec0MHEIzzHeBQiQT']","","",""
"","United States | New York |  |  |  | Schenectady |","Schenectady","","","","New York","United States","","","North America","","","","['recf7j9w4SJPboZEA']","","",""
"","Cananda | Ontario |  |  |  | Wingham |","Wingham","","","","Ontario","Cananda","","","North America","","","","['recxCeWptCWNMPIQn']","","",""
"","United States | New York |  |  |  |  |","","","","","New York","United States","","","North America","","","","['rec1WvESTJMuWrGio']","","",""
"","Egypt |  |  | Alexandria |  |  |","","","Alexandria","","","Egypt","","","North Africa","","","","['recjpCr1ofANBwN25']","","",""
"","Canada | Toronto |  | Toronto |  |  |","","","Toronto","","Toronto","Canada","","","North America","","","","['rec37AatwXwF1s2Sd']","","",""
"","England |  | Cornwall, |  |  Redruth |  |",""," Redruth","","Cornwall,","","England","","","United Kingdom","","","","['reccpUUyOPeNRYrUE']","","",""
"","Scotland |  | Lanarkshire |  |  | Shotts |","Shotts","","","Lanarkshire","","Scotland","","","","","","","['rec7yd2vxqqO4xynp']","","",""
"","United States | Pennsylvania |  | Lancaster |  |  |","","","Lancaster","","Pennsylvania","United States","","","North America","","","","['recbY54BXcslQFYNu']","","",""
"","Angola | Bengo |  |  |  | Icolo |","Icolo","","","","Bengo","Angola","","","Southern Africa","","","","['recvBmojsDC4O1e7o']","","",""
"","Mozambique |  |  |  |  | Maputo |","Maputo","","","","","Mozambique","","","Southeast Africa","","","['recpDRn28zU9a2ucy']","['recpDRn28zU9a2ucy']","","",""
""," |  |  |  |  |  |","","","","","","","","","","","","","","","",""
